{
"type": "FeatureCollection",
"name": "domaines",
"crs": "EPSG:25832",
"features": [
{"type":"Feature","id":1,"properties":{"nom": "D1"},"geometry":{"type":"Polygon","coordinates":[[[500708.2281738577,5600046.225626279],[500633.7883253395,5600046.765630526],[500634.0083248918,5600046.225626279],[500518.9785589723,5600038.665566826],[500481.0286361987,5600103.676078067],[500603.90838614386,5600118.406193905],[500566.0884631057,5600205.736880671],[500642.7783070453,5600222.667013809],[500702.89818470395,5600235.947118244],[500733.12812318734,5600183.246703809],[500748.2680923782,5600150.426445711],[500756.9180747759,5600126.366256502],[500760.7680669413,5600084.525927471],[500772.908042237,5600029.025491017],[500708.2281738577,5600046.225626279]]]}},
{"type":"Feature","id":2,"properties":{"nom": "D2"},"geometry":{"type":"Polygon","coordinates":[[[500558.58847836783,5599907.884538367],[500470.3086580134,5599906.234525392],[500285.1190348661,5599875.8742866395],[500281.43904235476,5599920.924640914],[500276.9990513899,5599975.225067932],[500262.7090804694,5600040.77558342],[500257.2490915802,5600089.105963488],[500258.9290881615,5600145.406406234],[500261.0290838881,5600183.226703651],[500301.44900163537,5600230.677076801],[500354.23889421026,5600256.3372785915],[500376.1388496448,5600226.827046524],[500409.5587816367,5600172.006615417],[500481.0286361987,5600103.676078067],[500518.9785589723,5600038.665566826],[500539.6985168081,5599968.845017759],[500558.58847836783,5599907.884538367]]]}},
{"type":"Feature","id":3,"properties":{"nom": "D3"},"geometry":{"type":"Polygon","coordinates":[[[500978.63762358634,5599773.083478295],[500764.4480594527,5599824.413881957],[500671.11824937473,5599908.764545288],[500558.58847836783,5599907.884538367],[500539.6985168081,5599968.845017759],[500518.9785589723,5600038.665566826],[500634.0083248918,5600046.225626279],[500708.2281738577,5600046.225626279],[500772.908042237,5600029.025491017],[500794.02799925883,5599990.09518487],[500822.4779413644,5599937.644772401],[500823.55793916667,5599935.644756673],[500848.46788847604,5599900.384479388],[500915.60775184934,5599835.483969011],[500978.63762358634,5599773.083478295]]]}},
{"type":"Feature","id":4,"properties":{"nom": "D4"},"geometry":{"type":"Polygon","coordinates":[[[500285.1190348661,5599875.8742866395],[500263.48907888215,5599824.413881957],[500243.13912029343,5599775.983501101],[500239.7691271512,5599759.583372131],[500187.5992333146,5599770.303456433],[500185.73923709965,5599835.763971213],[500185.38380050514,5599835.826413395],[500184.38655763655,5599836.000241293],[500182.85110886605,5599836.265206933],[500180.881054566,5599836.601062344],[500178.5799951086,5599836.987559552],[500176.0515308662,5599837.404450586],[500173.39926221094,5599837.831487472],[500170.7267895152,5599838.248422238],[500168.1377131512,5599838.63500691],[500165.73563349125,5599838.970993518],[500163.6241509075,5599839.236134087],[500161.9068657724,5599839.410180645],[500160.6873784581,5599839.472885219],[500160.06928933685,5599839.403999838],[500153.0293036629,5599867.134217908],[500139.64933089056,5599897.984460513],[500133.599343202,5599944.884829337],[500090.03943184455,5600015.795386976],[500063.2194864219,5600083.325918035],[500162.26928485994,5600126.886260591],[500261.0290838881,5600183.226703651],[500258.9290881615,5600145.406406234],[500257.2490915802,5600089.105963488],[500262.7090804694,5600040.77558342],[500276.9990513899,5599975.225067932],[500281.43904235476,5599920.924640914],[500285.1190348661,5599875.8742866395]]]}},
{"type":"Feature","id":5,"properties":{"nom": "D5"},"geometry":{"type":"Polygon","coordinates":[[[500261.0290838881,5600183.226703651],[500162.26928485994,5600126.886260591],[500063.2194864219,5600083.325918035],[500033.9995458832,5600068.585802118],[500001.6596116936,5600118.406193905],[499915.18978765584,5600214.966953256],[499881.74985570466,5600264.907345986],[499850.78991870675,5600399.078401105],[499923.99976972793,5600408.588475891],[500025.46956324135,5600431.088652832],[500086.7094386209,5600446.078770714],[500112.81938548834,5600340.127937519],[500174.96925901604,5600306.717674782],[500204.5291988629,5600253.577256886],[500203.94920004316,5600211.5469263615],[500225.2491566987,5600203.486862977],[500261.0290838881,5600183.226703651]]]}},
{"type":"Feature","id":6,"properties":{"nom": "D6"},"geometry":{"type":"Polygon","coordinates":[[[500080.0894520923,5600482.699058695],[500086.7094386209,5600446.078770714],[500025.46956324135,5600431.088652832],[499923.99976972793,5600408.588475891],[499850.78991870675,5600399.078401105],[499838.9599427802,5600448.618790689],[499813.2199951599,5600495.549159748],[499803.54001485824,5600539.409504665],[499761.8500996954,5600552.839610279],[499735.01015431347,5600571.87976001],[499751.63012049254,5600600.979988853],[499710.2602046785,5600622.650159267],[499718.7301874425,5600648.340361294],[499789.0200444057,5600666.440503634],[499828.71996361815,5600662.540472964],[499884.50985008816,5600657.060429868],[499948.3097202582,5600650.80038064],[500001.4496121209,5600642.790317649],[500034.9395439704,5600629.69021463],[500085.16944175476,5600606.390031398],[500124.24936222885,5600580.129824888],[500080.0894520923,5600482.699058695]]]}},
{"type":"Feature","id":7,"properties":{"nom": "D7"},"geometry":{"type":"Polygon","coordinates":[[[500205.9591959529,5600860.212027448],[500188.23923201225,5600778.611385742],[500184.6592392974,5600770.54132228],[500085.16944175476,5600606.390031398],[500034.9395439704,5600629.69021463],[500001.4496121209,5600642.790317649],[499948.3097202582,5600650.80038064],[499884.50985008816,5600657.060429868],[499828.71996361815,5600662.540472964],[499789.0200444057,5600666.440503634],[499718.7301874425,5600648.340361294],[499730.13016424404,5600765.141279814],[499753.93011581217,5600834.351824084],[499823.17997489177,5600920.482501414],[500085.16944175476,5600884.292216814],[500205.9591959529,5600860.212027448]]]}},
{"type":"Feature","id":8,"properties":{"nom": "D8"},"geometry":{"type":"Polygon","coordinates":[[[500216.68917411787,5600923.6725265],[500205.9591959529,5600860.212027448],[500085.16944175476,5600884.292216814],[499823.17997489177,5600920.482501414],[499863.71989239485,5600981.322979862],[499973.409669181,5600959.722809998],[500005.23960440845,5601088.903825874],[500111.69938776747,5601064.483633835],[500208.24919129285,5601049.303514459],[500208.25588531,5601049.214995925],[500208.27567317255,5601048.953113143],[500208.3081135973,5601048.5233753435],[500208.35276530084,5601047.931291753],[500208.409187,5601047.182371603],[500208.47693741147,5601046.282124122],[500208.5555752519,5601045.236058538],[500208.6446592381,5601044.04968408],[500208.74374808674,5601042.728509979],[500208.8524005146,5601041.278045462],[500208.9701752383,5601039.703799761],[500209.0966309746,5601038.011282102],[500209.2313264403,5601036.206001716],[500209.37382035196,5601034.293467831],[500209.5236714264,5601032.279189677],[500209.68043838034,5601030.1686764825],[500209.8436799305,5601027.967437478],[500210.0129547935,5601025.68098189],[500210.1878216862,5601023.314818949],[500210.3678393253,5601020.8744578855],[500210.5525664274,5601018.365407927],[500210.74156170926,5601015.793178302],[500210.9343838877,5601013.163278242],[500211.13059167936,5601010.481216974],[500211.3297438009,5601007.752503728],[500211.5313989692,5601004.982647732],[500211.7351159008,5601002.177158217],[500211.9404533126,5600999.34154441],[500212.14696992113,5600996.481315543],[500212.3542244432,5600993.601980843],[500212.5617755956,5600990.709049538],[500212.7691820949,5600987.80803086],[500212.9760026579,5600984.904434036],[500213.1817960013,5600982.003768296],[500213.3861208419,5600979.111542869],[500213.58853589627,5600976.233266984],[500213.7885998813,5600973.374449871],[500213.9858715135,5600970.540600758],[500214.1799095098,5600967.737228874],[500214.37027258676,5600964.969843448],[500214.55651946116,5600962.24395371],[500214.73820884974,5600959.565068889],[500214.9148994692,5600956.9386982145],[500215.0861500362,5600954.370350914],[500215.25151926756,5600951.8655362185],[500215.41056587995,5600949.429763356],[500215.5628485901,5600947.068541556],[500215.7079261147,5600944.787380046],[500215.84535717044,5600942.591788058],[500215.9747004741,5600940.487274819],[500216.0955147424,5600938.479349559],[500216.2073586921,5600936.573521508],[500216.3097910398,5600934.775299893],[500216.4023705023,5600933.090193944],[500216.48465579626,5600931.52371289],[500216.55620563845,5600930.081365962],[500216.6165787456,5600928.768662386],[500216.66533383436,5600927.591111393],[500216.7020296215,5600926.554222211],[500216.72622482374,5600925.663504071],[500216.73747815774,5600924.9244662],[500216.7353483403,5600924.342617829],[500216.71939408814,5600923.923468186],[500216.68917411787,5600923.6725265]]]}},
{"type":"Feature","id":9,"properties":{"nom": "D9"},"geometry":{"type":"Polygon","coordinates":[[[500541.7185126975,5600890.702267222],[500535.3385256805,5600879.54217946],[500492.08861369215,5600878.042167664],[500449.5687002183,5600847.211925215],[500415.358769834,5600822.411730187],[500368.84886447963,5600788.691465012],[500299.3590058884,5600830.33179247],[500298.40900782164,5600830.871796717],[500248.41910954885,5600859.482021707],[500205.9591959529,5600860.212027448],[500216.68917411787,5600923.6725265],[500216.71939408814,5600923.923468186],[500216.7353483403,5600924.342617829],[500216.73747815774,5600924.9244662],[500216.72622482374,5600925.663504071],[500216.7020296215,5600926.554222211],[500216.66533383436,5600927.591111393],[500216.6165787456,5600928.768662386],[500216.55620563845,5600930.081365962],[500216.48465579626,5600931.52371289],[500216.4023705023,5600933.090193944],[500216.3097910398,5600934.775299893],[500216.2073586921,5600936.573521508],[500216.0955147424,5600938.479349559],[500215.9747004741,5600940.487274819],[500215.84535717044,5600942.591788058],[500215.7079261147,5600944.787380046],[500215.5628485901,5600947.068541556],[500215.41056587995,5600949.429763356],[500215.25151926756,5600951.8655362185],[500215.0861500362,5600954.370350914],[500214.9148994692,5600956.9386982145],[500214.73820884974,5600959.565068889],[500214.55651946116,5600962.24395371],[500214.37027258676,5600964.969843448],[500214.1799095098,5600967.737228874],[500213.9858715135,5600970.540600758],[500213.7885998813,5600973.374449871],[500213.58853589627,5600976.233266984],[500213.3861208419,5600979.111542869],[500213.1817960013,5600982.003768296],[500212.9760026579,5600984.904434036],[500212.7691820949,5600987.80803086],[500212.5617755956,5600990.709049538],[500212.3542244432,5600993.601980843],[500212.14696992113,5600996.481315543],[500211.9404533126,5600999.34154441],[500211.7351159008,5601002.177158217],[500211.5313989692,5601004.982647732],[500211.3297438009,5601007.752503728],[500211.13059167936,5601010.481216974],[500210.9343838877,5601013.163278242],[500210.74156170926,5601015.793178302],[500210.5525664274,5601018.365407927],[500210.3678393253,5601020.8744578855],[500210.1878216862,5601023.314818949],[500210.0129547935,5601025.68098189],[500209.8436799305,5601027.967437478],[500209.68043838034,5601030.1686764825],[500209.5236714264,5601032.279189677],[500209.37382035196,5601034.293467831],[500209.2313264403,5601036.206001716],[500209.0966309746,5601038.011282102],[500208.9701752383,5601039.703799761],[500208.8524005146,5601041.278045462],[500208.74374808674,5601042.728509979],[500208.6446592381,5601044.04968408],[500208.5555752519,5601045.236058538],[500208.47693741147,5601046.282124122],[500208.409187,5601047.182371603],[500208.35276530084,5601047.931291753],[500208.3081135973,5601048.5233753435],[500208.27567317255,5601048.953113143],[500208.25588531,5601049.214995925],[500208.24919129285,5601049.303514459],[500276.8090517766,5601051.94353522],[500316.49897100934,5601050.623524839],[500352.7988971406,5601059.2035923125],[500392.8888155594,5601059.2035923125],[500455.9886871539,5600972.402909715],[500456.05831057706,5600972.336549285],[500456.264075112,5600972.140428391],[500456.60132215725,5600971.818987622],[500457.065393111,5600971.37666757],[500457.65162937174,5600970.8179088235],[500458.3553723378,5600970.147151975],[500459.17196340754,5600969.368837614],[500460.0967439794,5600968.48740633],[500461.12505545164,5600967.507298715],[500462.2522392227,5600966.432955359],[500463.4736366909,5600965.268816853],[500464.78458925465,5600964.019323786],[500466.1804383123,5600962.688916749],[500467.6565252622,5600961.282036334],[500469.2081915028,5600959.8031231295],[500470.83077843237,5600958.256617728],[500472.51962744934,5600956.646960718],[500474.2700799521,5600954.97859269],[500476.0774773389,5600953.255954236],[500477.93716100825,5600951.4834859455],[500479.84447235847,5600949.665628409],[500481.79475278786,5600947.806822217],[500483.7833436949,5600945.91150796],[500485.80558647786,5600943.98412623],[500487.85682253516,5600942.029117615],[500489.93239326513,5600940.050922707],[500492.0276400662,5600938.053982095],[500494.13790433673,5600936.042736371],[500496.25852747506,5600934.021626125],[500498.3848508796,5600931.995091948],[500500.51221594866,5600929.96757443],[500502.63596408063,5600927.943514161],[500504.75143667386,5600925.927351732],[500506.85397512675,5600923.9235277325],[500508.9389208377,5600921.936482755],[500511.001615205,5600919.970657389],[500513.0373996271,5600918.030492224],[500515.0416155023,5600916.120427851],[500517.009604229,5600914.244904861],[500518.9367072056,5600912.408363844],[500520.8182658304,5600910.615245392],[500522.64962150186,5600908.869990093],[500524.42611561826,5600907.177038539],[500526.14308957796,5600905.54083132],[500527.7958847794,5600903.965809027],[500529.379842621,5600902.456412249],[500530.89030450094,5600901.017081578],[500532.32261181774,5600899.6522576045],[500533.67210596974,5600898.366380919],[500534.9341283553,5600897.163892111],[500536.10402037273,5600896.04923177],[500537.1771234205,5600895.02684049],[500538.14877889695,5600894.101158858],[500539.01432820037,5600893.276627467],[500539.76911272923,5600892.557686906],[500540.4084738819,5600891.948777766],[500540.92775305663,5600891.454340637],[500541.3222916519,5600891.078816109],[500541.5874310661,5600890.8266447745],[500541.7185126975,5600890.702267222]]]}},
{"type":"Feature","id":10,"properties":{"nom": "D10"},"geometry":{"type":"Polygon","coordinates":[[[500711.4281673458,5601106.893967349],[500678.6582340312,5600982.032985445],[500600.85839235043,5600844.701905477],[500541.7185126975,5600890.702267222],[500541.5874310661,5600890.8266447745],[500541.3222916519,5600891.078816109],[500540.92775305663,5600891.454340637],[500540.4084738819,5600891.948777766],[500539.76911272923,5600892.557686906],[500539.01432820037,5600893.276627467],[500538.14877889695,5600894.101158858],[500537.1771234205,5600895.02684049],[500536.10402037273,5600896.04923177],[500534.9341283553,5600897.163892111],[500533.67210596974,5600898.366380919],[500532.32261181774,5600899.6522576045],[500530.89030450094,5600901.017081578],[500529.379842621,5600902.456412249],[500527.7958847794,5600903.965809027],[500526.14308957796,5600905.54083132],[500524.42611561826,5600907.177038539],[500522.64962150186,5600908.869990093],[500520.8182658304,5600910.615245392],[500518.9367072056,5600912.408363844],[500517.009604229,5600914.244904861],[500515.0416155023,5600916.120427851],[500513.0373996271,5600918.030492224],[500511.001615205,5600919.970657389],[500508.9389208377,5600921.936482755],[500506.85397512675,5600923.9235277325],[500504.75143667386,5600925.927351732],[500502.63596408063,5600927.943514161],[500500.51221594866,5600929.96757443],[500498.3848508796,5600931.995091948],[500496.25852747506,5600934.021626125],[500494.13790433673,5600936.042736371],[500492.0276400662,5600938.053982095],[500489.93239326513,5600940.050922707],[500487.85682253516,5600942.029117615],[500485.80558647786,5600943.98412623],[500483.7833436949,5600945.91150796],[500481.79475278786,5600947.806822217],[500479.84447235847,5600949.665628409],[500477.93716100825,5600951.4834859455],[500476.0774773389,5600953.255954236],[500474.2700799521,5600954.97859269],[500472.51962744934,5600956.646960718],[500470.83077843237,5600958.256617728],[500469.2081915028,5600959.8031231295],[500467.6565252622,5600961.282036334],[500466.1804383123,5600962.688916749],[500464.78458925465,5600964.019323786],[500463.4736366909,5600965.268816853],[500462.2522392227,5600966.432955359],[500461.12505545164,5600967.507298715],[500460.0967439794,5600968.48740633],[500459.17196340754,5600969.368837614],[500458.3553723378,5600970.147151975],[500457.65162937174,5600970.8179088235],[500457.065393111,5600971.37666757],[500456.60132215725,5600971.818987622],[500456.264075112,5600972.140428391],[500456.05831057706,5600972.336549285],[500455.9886871539,5600972.402909715],[500392.8888155594,5601059.2035923125],[500407.5787856659,5601109.3639867725],[500429.10874185344,5601131.264158995],[500478.53864126577,5601120.704075951],[500502.9385916129,5601201.674712703],[500617.16835916037,5601227.584916459],[500668.2982551133,5601232.294953499],[500711.4281673458,5601106.893967349]]]}},
{"type":"Feature","id":11,"properties":{"nom": "D11"},"geometry":{"type":"Polygon","coordinates":[[[500916.89774922427,5600062.3857533615],[500843.9278977147,5600049.785654275],[500806.9779729062,5600041.705590733],[500796.4079944156,5600090.04597088],[500792.34800267755,5600134.236318393],[500781.61802451254,5600164.076553055],[500765.0880581503,5600199.906834824],[500732.49812446936,5600255.68727348],[500731.3481268096,5600257.557288186],[500757.48807361594,5600268.6073750835],[500794.1579989943,5600276.627438153],[500818.79794885305,5600280.067465205],[500845.1578952117,5600285.217505705],[500881.25782174995,5600226.827046524],[500899.0777854871,5600159.886520105],[500900.167783269,5600153.946473393],[500916.89774922427,5600062.3857533615]]]}}
]
}
