{
"type": "FeatureCollection",
"name": "ilots",
"crs": "EPSG:25832",
"features": [
{"type":"Feature","id":10,"properties":{},"geometry":{"type":"Polygon","coordinates":[[[500535.3297131025,5600879.539438744],[500541.7191575635,5600890.694890862],[500601.45599458704,5600845.479715877],[500522.9070044677,5600744.488157153],[500510.3655690705,5600752.739101493],[500482.9724338608,5600765.28053689],[500490.60579337383,5600790.824778299],[500535.3297131025,5600879.539438744]]]}},
{"type":"Feature","id":11,"properties":{},"geometry":{"type":"Polygon","coordinates":[[[500535.3297131025,5600879.539438744],[500490.60579337383,5600790.824778299],[500482.9724338608,5600765.28053689],[500466.41088597965,5600716.773698092],[500458.75875892374,5600719.854489495],[500413.16563002265,5600753.868898087],[500396.0709880015,5600767.481298216],[500368.8461877455,5600788.69131702],[500492.08837568207,5600878.036049434],[500535.3297131025,5600879.539438744]]]}},
{"type":"Feature","id":12,"properties":{},"geometry":{"type":"Polygon","coordinates":[[[500466.41088597965,5600716.773698092],[500482.9724338608,5600765.28053689],[500510.3655690705,5600752.739101493],[500522.9070044677,5600744.488157153],[500540.05547309446,5600728.695873093],[500556.3127741095,5600707.2031700555],[500546.95573582116,5600688.003627663],[500510.5470132353,5600700.364613726],[500466.41088597965,5600716.773698092]]]}},
{"type":"Feature","id":13,"properties":{},"geometry":{"type":"Polygon","coordinates":[[[500466.41088597965,5600716.773698092],[500450.9895349312,5600652.943376284],[500436.35054648994,5600592.866445074],[500404.67575589824,5600581.491536537],[500376.8833044827,5600636.631290948],[500408.8922270008,5600653.8150283005],[500458.75875892374,5600719.854489495],[500466.41088597965,5600716.773698092]]]}},
{"type":"Feature","id":14,"properties":{},"geometry":{"type":"Polygon","coordinates":[[[500450.9895349312,5600652.943376284],[500466.41088597965,5600716.773698092],[500510.5470132353,5600700.364613726],[500501.55720518937,5600652.943376284],[500450.9895349312,5600652.943376284]]]}},
{"type":"Feature","id":15,"properties":{},"geometry":{"type":"Polygon","coordinates":[[[500436.35054648994,5600592.866445074],[500450.9895349312,5600652.943376284],[500501.55720518937,5600652.943376284],[500536.8422017695,5600650.471179071],[500534.4897806194,5600596.791110354],[500507.46539959457,5600557.709784071],[500436.35054648994,5600592.866445074]]]}},
{"type":"Feature","id":16,"properties":{},"geometry":{"type":"Polygon","coordinates":[[[500436.35054648994,5600592.866445074],[500420.22060822713,5600489.48820439],[500392.8866509108,5600575.753476587],[500404.67575589824,5600581.491536537],[500436.35054648994,5600592.866445074]]]}},
{"type":"Feature","id":17,"properties":{},"geometry":{"type":"Polygon","coordinates":[[[500420.22060822713,5600489.48820439],[500436.35054648994,5600592.866445074],[500507.46539959457,5600557.709784071],[500495.8674180578,5600528.305453077],[500475.8038375735,5600531.6493831575],[500420.22060822713,5600489.48820439]]]}},
{"type":"Feature","id":18,"properties":{},"geometry":{"type":"Polygon","coordinates":[[[500420.22060822713,5600489.48820439],[500417.7554426096,5600431.086269712],[500416.1587194865,5600416.592724579],[500382.7843562551,5600417.928372914],[500381.06209737546,5600488.475126235],[500420.22060822713,5600489.48820439]]]}},
{"type":"Feature","id":19,"properties":{},"geometry":{"type":"Polygon","coordinates":[[[500417.7554426096,5600431.086269712],[500420.22060822713,5600489.48820439],[500475.8038375735,5600531.6493831575],[500495.8674180578,5600528.305453077],[500497.4722955648,5600502.91594287],[500504.23273539136,5600485.169788325],[500512.6832851746,5600464.606783853],[500494.65544563706,5600459.536453983],[500454.1958026941,5600443.479456427],[500417.7554426096,5600431.086269712]]]}},
{"type":"Feature","id":20,"properties":{},"geometry":{"type":"Polygon","coordinates":[[[500416.1587194865,5600416.592724579],[500417.7554426096,5600431.086269712],[500454.1958026941,5600443.479456427],[500460.212014589,5600394.578452051],[500414.39624708204,5600400.594663946],[500416.1587194865,5600416.592724579]]]}},
{"type":"Feature","id":21,"properties":{},"geometry":{"type":"Polygon","coordinates":[[[500416.1587194865,5600416.592724579],[500414.39624708204,5600400.594663946],[500412.5891331326,5600383.63272568],[500412.0063454473,5600380.447162735],[500348.02167254966,5600385.271555616],[500348.6256729613,5600419.156676091],[500382.7843562551,5600417.928372914],[500416.1587194865,5600416.592724579]]]}},
{"type":"Feature","id":22,"properties":{},"geometry":{"type":"Polygon","coordinates":[[[500412.0063454473,5600380.447162735],[500412.5891331326,5600383.63272568],[500414.39624708204,5600400.594663946],[500460.212014589,5600394.578452051],[500479.8032687081,5600392.110262555],[500517.7516821987,5600410.15889824],[500528.5949939235,5600388.010734165],[500499.9895479173,5600379.244549098],[500482.0092892247,5600348.894422359],[500464.3952461461,5600358.2195039885],[500412.0063454473,5600380.447162735]]]}},
{"type":"Feature","id":23,"properties":{},"geometry":{"type":"Polygon","coordinates":[[[500412.0063454473,5600380.447162735],[500398.95841688075,5600309.126167451],[500390.1602687374,5600290.06351314],[500354.2344971521,5600256.3372785915],[500292.9550035508,5600328.93898618],[500340.8482367414,5600376.410252558],[500348.02167254966,5600385.271555616],[500412.0063454473,5600380.447162735]]]}},
{"type":"Feature","id":24,"properties":{},"geometry":{"type":"Polygon","coordinates":[[[500398.95841688075,5600309.126167451],[500412.0063454473,5600380.447162735],[500464.3952461461,5600358.2195039885],[500444.5504169294,5600325.5109974425],[500467.4406714022,5600290.921279573],[500442.7700638037,5600274.898101442],[500425.7295410295,5600300.077381362],[500398.95841688075,5600309.126167451]]]}},
{"type":"Feature","id":25,"properties":{},"geometry":{"type":"Polygon","coordinates":[[[500354.2344971521,5600256.3372785915],[500390.1602687374,5600290.06351314],[500398.95841688075,5600309.126167451],[500425.7295410295,5600300.077381362],[500442.7700638037,5600274.898101442],[500376.1339896717,5600226.828567049],[500354.2344971521,5600256.3372785915]]]}},
{"type":"Feature","id":26,"properties":{},"geometry":{"type":"Polygon","coordinates":[[[500181.2853491746,5600382.157682046],[500250.6700206005,5600310.253608584],[500301.44560829207,5600230.676013173],[500261.0264831939,5600183.230837376],[500225.2465177566,5600203.488177454],[500203.94414384145,5600211.548535151],[500204.519883677,5600253.577543147],[500174.9651358446,5600306.722185387],[500112.8138451123,5600340.125723752],[500143.7713253226,5600357.04063562],[500181.2853491746,5600382.157682046]]]}},
{"type":"Feature","id":28,"properties":{},"geometry":{"type":"Polygon","coordinates":[[[500464.3952461461,5600358.2195039885],[500482.0092892247,5600348.894422359],[500508.6030405395,5600318.501563713],[500467.4406714022,5600290.921279573],[500444.5504169294,5600325.5109974425],[500464.3952461461,5600358.2195039885]]]}},
{"type":"Feature","id":29,"properties":{},"geometry":{"type":"Polygon","coordinates":[[[500508.6030405395,5600318.501563713],[500482.0092892247,5600348.894422359],[500499.9895479173,5600379.244549098],[500528.5949939235,5600388.010734165],[500555.9417089259,5600332.500319249],[500519.65498913784,5600307.449615114],[500508.6030405395,5600318.501563713]]]}},
{"type":"Feature","id":30,"properties":{},"geometry":{"type":"Polygon","coordinates":[[[500508.6030405395,5600318.501563713],[500519.65498913784,5600307.449615114],[500534.8514184606,5600287.072584886],[500551.08396796446,5600241.483296919],[500409.55848975654,5600172.011650695],[500376.1339896717,5600226.828567049],[500442.7700638037,5600274.898101442],[500467.4406714022,5600290.921279573],[500508.6030405395,5600318.501563713]]]}},
{"type":"Feature","id":31,"properties":{},"geometry":{"type":"Polygon","coordinates":[[[500551.08396796446,5600241.483296919],[500534.8514184606,5600287.072584886],[500519.65498913784,5600307.449615114],[500555.9417089259,5600332.500319249],[500622.394048249,5600368.861033219],[500702.9518369567,5600235.956354572],[500566.0797925178,5600205.73637041],[500551.08396796446,5600241.483296919]]]}},
{"type":"Feature","id":32,"properties":{},"geometry":{"type":"Polygon","coordinates":[[[500551.08396796446,5600241.483296919],[500566.0797925178,5600205.73637041],[500603.9002368336,5600118.410943034],[500481.02609997196,5600103.678584788],[500409.55848975654,5600172.011650695],[500551.08396796446,5600241.483296919]]]}},
{"type":"Feature","id":33,"properties":{},"geometry":{"type":"Polygon","coordinates":[[[500340.8482367414,5600376.410252558],[500292.9550035508,5600328.93898618],[500210.11802827695,5600415.001803449],[500237.8219345891,5600456.322884051],[500302.6209018957,5600419.227823056],[500340.8482367414,5600376.410252558]]]}},
{"type":"Feature","id":34,"properties":{},"geometry":{"type":"Polygon","coordinates":[[[500348.02167254966,5600385.271555616],[500340.8482367414,5600376.410252558],[500302.6209018957,5600419.227823056],[500320.9558677492,5600490.109363732],[500345.5851093149,5600489.677271775],[500348.6256729613,5600419.156676091],[500348.02167254966,5600385.271555616]]]}},
{"type":"Feature","id":35,"properties":{},"geometry":{"type":"Polygon","coordinates":[[[500237.8219345891,5600456.322884051],[500210.11802827695,5600415.001803449],[500181.2853491746,5600382.157682046],[500143.7713253226,5600357.04063562],[500112.8138451123,5600340.125723752],[500086.70743396593,5600446.083284885],[500108.53724475345,5600451.827971933],[500132.281951224,5600461.402450349],[500154.8777202848,5600473.274803584],[500179.38838502864,5600491.274823006],[500192.02669653716,5600503.530155377],[500209.3238843632,5600483.291770344],[500237.8219345891,5600456.322884051]]]}},
{"type":"Feature","id":36,"properties":{},"geometry":{"type":"Polygon","coordinates":[[[500302.6209018957,5600419.227823056],[500237.8219345891,5600456.322884051],[500209.3238843632,5600483.291770344],[500232.24661104433,5600542.757974342],[500242.4821127141,5600571.882265375],[500274.70267711894,5600563.445805814],[500322.63414169435,5600548.043320226],[500320.9558677492,5600490.109363732],[500302.6209018957,5600419.227823056]]]}},
{"type":"Feature","id":37,"properties":{},"geometry":{"type":"Polygon","coordinates":[[[500348.6256729613,5600419.156676091],[500345.5851093149,5600489.677271775],[500353.34595592663,5600489.563938029],[500381.06209737546,5600488.475126235],[500382.7843562551,5600417.928372914],[500348.6256729613,5600419.156676091]]]}},
{"type":"Feature","id":38,"properties":{},"geometry":{"type":"Polygon","coordinates":[[[500345.5851093149,5600489.677271775],[500320.9558677492,5600490.109363732],[500322.63414169435,5600548.043320226],[500274.70267711894,5600563.445805814],[500279.52226413396,5600589.953534397],[500324.92852760304,5600581.771537623],[500354.7370188516,5600555.142618774],[500352.15361627674,5600551.565599824],[500353.34595592663,5600489.563938029],[500345.5851093149,5600489.677271775]]]}},
{"type":"Feature","id":39,"properties":{},"geometry":{"type":"Polygon","coordinates":[[[500192.02669653716,5600503.530155377],[500179.38838502864,5600491.274823006],[500154.8777202848,5600473.274803584],[500132.281951224,5600461.402450349],[500108.53724475345,5600451.827971933],[500086.70743396593,5600446.083284885],[500080.0827082314,5600482.699535153],[500124.23938935495,5600580.125982703],[500192.02669653716,5600503.530155377]]]}},
{"type":"Feature","id":40,"properties":{},"geometry":{"type":"Polygon","coordinates":[[[500209.3238843632,5600483.291770344],[500192.02669653716,5600503.530155377],[500124.23938935495,5600580.125982703],[500085.1596307968,5600606.392499805],[500174.1092607661,5600622.489197581],[500177.7636084979,5600602.888605202],[500195.03870686627,5600568.006195035],[500232.24661104433,5600542.757974342],[500209.3238843632,5600483.291770344]]]}},
{"type":"Feature","id":41,"properties":{},"geometry":{"type":"Polygon","coordinates":[[[500232.24661104433,5600542.757974342],[500195.03870686627,5600568.006195035],[500177.7636084979,5600602.888605202],[500174.1092607661,5600622.489197581],[500223.05889143696,5600634.475580706],[500242.4821127141,5600571.882265375],[500232.24661104433,5600542.757974342]]]}},
{"type":"Feature","id":42,"properties":{},"geometry":{"type":"Polygon","coordinates":[[[500174.1092607661,5600622.489197581],[500085.1596307968,5600606.392499805],[500184.6556201402,5600770.534561422],[500216.6800723428,5600750.798652236],[500174.1092607661,5600622.489197581]]]}},
{"type":"Feature","id":43,"properties":{},"geometry":{"type":"Polygon","coordinates":[[[500223.05889143696,5600634.475580706],[500260.3047759383,5600648.338398704],[500277.8420758156,5600654.184165331],[500290.7027623923,5600649.340530126],[500279.52226413396,5600589.953534397],[500274.70267711894,5600563.445805814],[500242.4821127141,5600571.882265375],[500223.05889143696,5600634.475580706]]]}},
{"type":"Feature","id":44,"properties":{},"geometry":{"type":"Polygon","coordinates":[[[500290.7027623923,5600649.340530126],[500277.8420758156,5600654.184165331],[500260.3047759383,5600648.338398704],[500255.2373849885,5600667.276053588],[500306.4824011127,5600681.691520665],[500332.12436414446,5600689.922274231],[500344.4704944931,5600696.253623127],[500376.8833044827,5600636.631290948],[500404.67575589824,5600581.491536537],[500392.8866509108,5600575.753476587],[500380.54873385327,5600586.754896342],[500357.66636060056,5600606.066970222],[500325.53366624564,5600638.848809917],[500290.7027623923,5600649.340530126]]]}},
{"type":"Feature","id":45,"properties":{},"geometry":{"type":"Polygon","coordinates":[[[500352.15361627674,5600551.565599824],[500354.7370188516,5600555.142618774],[500324.92852760304,5600581.771537623],[500279.52226413396,5600589.953534397],[500290.7027623923,5600649.340530126],[500325.53366624564,5600638.848809917],[500357.66636060056,5600606.066970222],[500380.54873385327,5600586.754896342],[500392.8866509108,5600575.753476587],[500352.15361627674,5600551.565599824]]]}},
{"type":"Feature","id":46,"properties":{},"geometry":{"type":"Polygon","coordinates":[[[500255.2373849885,5600667.276053588],[500251.64294326014,5600682.634122792],[500250.98940840043,5600699.952796574],[500277.0416287428,5600702.268404579],[500311.54748023005,5600708.2831860315],[500342.8876572689,5600720.9458838245],[500370.7455924145,5600740.25649796],[500396.0709880015,5600767.481298216],[500413.16563002265,5600753.868898087],[500386.5739646564,5600725.694395497],[500372.3284296387,5600716.1973721525],[500344.4704944931,5600696.253623127],[500332.12436414446,5600689.922274231],[500306.4824011127,5600681.691520665],[500255.2373849885,5600667.276053588]]]}},
{"type":"Feature","id":47,"properties":{},"geometry":{"type":"Polygon","coordinates":[[[500250.98940840043,5600699.952796574],[500250.66264097055,5600713.023493768],[500254.2570826989,5600740.145190446],[500260.1388964363,5600762.038608246],[500274.5166633499,5600789.160304924],[500299.35098801873,5600830.333001085],[500368.8461877455,5600788.69131702],[500396.0709880015,5600767.481298216],[500370.7455924145,5600740.25649796],[500342.8876572689,5600720.9458838245],[500311.54748023005,5600708.2831860315],[500277.0416287428,5600702.268404579],[500250.98940840043,5600699.952796574]]]}},
{"type":"Feature","id":48,"properties":{},"geometry":{"type":"Polygon","coordinates":[[[500299.35098801873,5600830.333001085],[500274.5166633499,5600789.160304924],[500260.1388964363,5600762.038608246],[500254.2570826989,5600740.145190446],[500216.6800723428,5600750.798652236],[500184.6556201402,5600770.534561422],[500188.2299176307,5600778.609422958],[500205.9537840998,5600860.21305816],[500248.4172141818,5600859.474563723],[500299.35098801873,5600830.333001085]]]}},
{"type":"Feature","id":49,"properties":{},"geometry":{"type":"Polygon","coordinates":[[[500344.4704944931,5600696.253623127],[500372.3284296387,5600716.1973721525],[500386.5739646564,5600725.694395497],[500413.16563002265,5600753.868898087],[500458.75875892374,5600719.854489495],[500408.8922270008,5600653.8150283005],[500376.8833044827,5600636.631290948],[500344.4704944931,5600696.253623127]]]}},
{"type":"Feature","id":50,"properties":{},"geometry":{"type":"Polygon","coordinates":[[[500522.9070044677,5600744.488157153],[500601.45599458704,5600845.479715877],[500660.1941721208,5600799.236026649],[500595.9916104852,5600739.166677136],[500556.3127741095,5600707.2031700555],[500540.05547309446,5600728.695873093],[500522.9070044677,5600744.488157153]]]}},
{"type":"Feature","id":53,"properties":{},"geometry":{"type":"Polygon","coordinates":[[[500510.5470132353,5600700.364613726],[500546.95573582116,5600688.003627663],[500536.8422017695,5600650.471179071],[500501.55720518937,5600652.943376284],[500510.5470132353,5600700.364613726]]]}},
{"type":"Feature","id":55,"properties":{},"geometry":{"type":"Polygon","coordinates":[[[500494.65544563706,5600459.536453983],[500512.6832851746,5600464.606783853],[500571.2724738521,5600441.991979048],[500599.87791985826,5600420.307205463],[500528.5949939235,5600388.010734165],[500517.7516821987,5600410.15889824],[500494.65544563706,5600459.536453983]]]}},
{"type":"Feature","id":56,"properties":{},"geometry":{"type":"Polygon","coordinates":[[[500454.1958026941,5600443.479456427],[500494.65544563706,5600459.536453983],[500517.7516821987,5600410.15889824],[500479.8032687081,5600392.110262555],[500460.212014589,5600394.578452051],[500454.1958026941,5600443.479456427]]]}},
{"type":"Feature","id":58,"properties":{},"geometry":{"type":"Polygon","coordinates":[[[500622.394048249,5600368.861033219],[500555.9417089259,5600332.500319249],[500528.5949939235,5600388.010734165],[500599.87791985826,5600420.307205463],[500622.394048249,5600368.861033219]]]}},
{"type":"Feature","id":59,"properties":{},"geometry":{"type":"Polygon","coordinates":[[[500622.7460605186,5600709.23063193],[500645.3521112177,5600729.379503205],[500711.4196751836,5600672.857470701],[500681.8505248573,5600627.352850139],[500666.44623696274,5600635.4976460375],[500654.58316467615,5600642.580077253],[500631.9193847853,5600652.318420175],[500608.72442255326,5600661.7026415365],[500583.5817917369,5600669.847437435],[500586.8028675957,5600680.754232443],[500622.7460605186,5600709.23063193]]]}},
{"type":"Feature","id":60,"properties":{},"geometry":{"type":"Polygon","coordinates":[[[500645.3521112177,5600729.379503205],[500691.2194604623,5600774.755416565],[500748.553647018,5600724.956580242],[500711.4196751836,5600672.857470701],[500645.3521112177,5600729.379503205]]]}},
{"type":"Feature","id":61,"properties":{},"geometry":{"type":"Polygon","coordinates":[[[500748.553647018,5600724.956580242],[500810.7134497215,5600670.347035906],[500737.66677885066,5600587.031823443],[500681.8505248573,5600627.352850139],[500711.4196751836,5600672.857470701],[500748.553647018,5600724.956580242]]]}},
{"type":"Feature","id":62,"properties":{},"geometry":{"type":"Polygon","coordinates":[[[500737.66677885066,5600587.031823443],[500721.5638386267,5600565.561236478],[500682.34828877356,5600521.852831999],[500674.2915544374,5600513.796097662],[500646.09298426105,5600529.198678011],[500616.23567466246,5600549.103551077],[500666.44623696274,5600635.4976460375],[500681.8505248573,5600627.352850139],[500737.66677885066,5600587.031823443]]]}},
{"type":"Feature","id":63,"properties":{},"geometry":{"type":"Polygon","coordinates":[[[500721.5638386267,5600565.561236478],[500799.20533395704,5600505.077760626],[500775.8677394296,5600469.371240999],[500784.73602535005,5600412.427510351],[500734.7282277967,5600400.091257884],[500693.50003330456,5600380.669711718],[500672.0341138582,5600369.425658675],[500654.30308006925,5600396.027944306],[500637.6939714018,5600435.755136659],[500733.69812202745,5600476.246976402],[500682.34828877356,5600521.852831999],[500721.5638386267,5600565.561236478]]]}},
{"type":"Feature","id":64,"properties":{},"geometry":{"type":"Polygon","coordinates":[[[500734.7282277967,5600400.091257884],[500784.73602535005,5600412.427510351],[500845.15569876233,5600285.222851927],[500818.79736128915,5600280.065785901],[500794.15804582514,5600276.627741883],[500734.7282277967,5600400.091257884]]]}},
{"type":"Feature","id":65,"properties":{},"geometry":{"type":"Polygon","coordinates":[[[500672.0341138582,5600369.425658675],[500693.50003330456,5600380.669711718],[500734.7282277967,5600400.091257884],[500794.15804582514,5600276.627741883],[500757.4855762973,5600268.605639173],[500731.3427174354,5600257.560887899],[500699.110736427,5600312.694539623],[500672.0341138582,5600369.425658675]]]}},
{"type":"Feature","id":66,"properties":{},"geometry":{"type":"Polygon","coordinates":[[[500583.5817917369,5600669.847437435],[500608.72442255326,5600661.7026415365],[500631.9193847853,5600652.318420175],[500654.58316467615,5600642.580077253],[500666.44623696274,5600635.4976460375],[500616.23567466246,5600549.103551077],[500598.9373921173,5600556.686359864],[500568.0811343124,5600573.765835019],[500573.81933801057,5600586.780632237],[500576.8998540802,5600638.201554324],[500578.0846679532,5600655.025911319],[500583.5817917369,5600669.847437435]]]}},
{"type":"Feature","id":67,"properties":{},"geometry":{"type":"Polygon","coordinates":[[[500637.6939714018,5600435.755136659],[500629.38941706804,5600449.895323768],[500608.7402549409,5600466.055537607],[500646.09298426105,5600529.198678011],[500674.2915544374,5600513.796097662],[500682.34828877356,5600521.852831999],[500733.69812202745,5600476.246976402],[500637.6939714018,5600435.755136659]]]}},
{"type":"Feature","id":68,"properties":{},"geometry":{"type":"Polygon","coordinates":[[[500608.7402549409,5600466.055537607],[500588.4799163847,5600478.812111178],[500568.540164028,5600484.046296172],[500598.9373921173,5600556.686359864],[500616.23567466246,5600549.103551077],[500646.09298426105,5600529.198678011],[500608.7402549409,5600466.055537607]]]}},
{"type":"Feature","id":69,"properties":{},"geometry":{"type":"Polygon","coordinates":[[[500568.540164028,5600484.046296172],[500549.0137461213,5600489.869326978],[500535.6665743876,5600521.807202199],[500568.0811343124,5600573.765835019],[500598.9373921173,5600556.686359864],[500568.540164028,5600484.046296172]]]}},
{"type":"Feature","id":70,"properties":{},"geometry":{"type":"Polygon","coordinates":[[[500181.2853491746,5600382.157682046],[500210.11802827695,5600415.001803449],[500292.9550035508,5600328.93898618],[500354.2344971521,5600256.3372785915],[500301.44560829207,5600230.676013173],[500250.6700206005,5600310.253608584],[500181.2853491746,5600382.157682046]]]}},
{"type":"Feature","id":71,"properties":{},"geometry":{"type":"Polygon","coordinates":[[[500174.1092607661,5600622.489197581],[500216.6800723428,5600750.798652236],[500254.2570826989,5600740.145190446],[500250.66264097055,5600713.023493768],[500250.98940840043,5600699.952796574],[500251.64294326014,5600682.634122792],[500255.2373849885,5600667.276053588],[500260.3047759383,5600648.338398704],[500223.05889143696,5600634.475580706],[500174.1092607661,5600622.489197581]]]}},
{"type":"Feature","id":72,"properties":{},"geometry":{"type":"Polygon","coordinates":[[[500352.15361627674,5600551.565599824],[500392.8866509108,5600575.753476587],[500420.22060822713,5600489.48820439],[500381.06209737546,5600488.475126235],[500353.34595592663,5600489.563938029],[500352.15361627674,5600551.565599824]]]}},
{"type":"Feature","id":1000,"properties":{"sol": "champ"},"geometry":{"type":"Polygon","coordinates":[[[500518.9785589723,5600038.665566826],[500481.0286361987,5600103.676078067],[500603.90838614386,5600118.406193905],[500633.7883253395,5600046.765630526],[500634.0083248918,5600046.225626279],[500518.9785589723,5600038.665566826]]]}},
{"type":"Feature","id":1001,"properties":{"sol": "champ"},"geometry":{"type":"Polygon","coordinates":[[[500603.90838614386,5600118.406193905],[500566.0884631057,5600205.736880671],[500642.7783070453,5600222.667013809],[500685.81821946095,5600122.666227406],[500603.90838614386,5600118.406193905]]]}},
{"type":"Feature","id":1002,"properties":{"sol": "champ"},"geometry":{"type":"Polygon","coordinates":[[[500633.7883253395,5600046.765630526],[500603.90838614386,5600118.406193905],[500685.81821946095,5600122.666227406],[500708.2281738577,5600046.225626279],[500633.7883253395,5600046.765630526]]]}},
{"type":"Feature","id":1003,"properties":{"sol": "champ"},"geometry":{"type":"Polygon","coordinates":[[[500708.2281738577,5600046.225626279],[500685.81821946095,5600122.666227406],[500756.9180747759,5600126.366256502],[500760.7680669413,5600084.525927471],[500772.908042237,5600029.025491017],[500708.2281738577,5600046.225626279]]]}},
{"type":"Feature","id":1004,"properties":{"sol": "champ"},"geometry":{"type":"Polygon","coordinates":[[[500685.81821946095,5600122.666227406],[500642.7783070453,5600222.667013809],[500702.89818470395,5600235.947118244],[500733.12812318734,5600183.246703809],[500748.2680923782,5600150.426445711],[500756.9180747759,5600126.366256502],[500685.81821946095,5600122.666227406]]]}},
{"type":"Feature","id":1005,"properties":{"sol": "champ"},"geometry":{"type":"Polygon","coordinates":[[[500662.16826758755,5599978.69509522],[500634.0083248918,5600046.225626279],[500708.2281738577,5600046.225626279],[500772.908042237,5600029.025491017],[500794.02799925883,5599990.09518487],[500662.16826758755,5599978.69509522]]]}},
{"type":"Feature","id":1006,"properties":{"sol": "champ"},"geometry":{"type":"Polygon","coordinates":[[[500764.4480594527,5599824.413881957],[500671.11824937473,5599908.764545288],[500822.4779413644,5599937.644772401],[500823.55793916667,5599935.644756673],[500848.46788847604,5599900.384479388],[500915.60775184934,5599835.483969011],[500978.63762358634,5599773.083478295],[500764.4480594527,5599824.413881957]]]}},
{"type":"Feature","id":1007,"properties":{"sol": "champ"},"geometry":{"type":"Polygon","coordinates":[[[500671.11824937473,5599908.764545288],[500662.16826758755,5599978.69509522],[500794.02799925883,5599990.09518487],[500822.4779413644,5599937.644772401],[500671.11824937473,5599908.764545288]]]}},
{"type":"Feature","id":1008,"properties":{"sol": "champ"},"geometry":{"type":"Polygon","coordinates":[[[500285.1190348661,5599875.8742866395],[500281.43904235476,5599920.924640914],[500453.0286931774,5599963.594976473],[500470.3086580134,5599906.234525392],[500285.1190348661,5599875.8742866395]]]}},
{"type":"Feature","id":1009,"properties":{"sol": "champ"},"geometry":{"type":"Polygon","coordinates":[[[500281.43904235476,5599920.924640914],[500276.9990513899,5599975.225067932],[500433.2087335101,5600029.425494162],[500453.0286931774,5599963.594976473],[500281.43904235476,5599920.924640914]]]}},
{"type":"Feature","id":1010,"properties":{"sol": "champ"},"geometry":{"type":"Polygon","coordinates":[[[500453.0286931774,5599963.594976473],[500433.2087335101,5600029.425494162],[500518.9785589723,5600038.665566826],[500539.6985168081,5599968.845017759],[500453.0286931774,5599963.594976473]]]}},
{"type":"Feature","id":1011,"properties":{"sol": "champ"},"geometry":{"type":"Polygon","coordinates":[[[500470.3086580134,5599906.234525392],[500453.0286931774,5599963.594976473],[500539.6985168081,5599968.845017759],[500558.58847836783,5599907.884538367],[500470.3086580134,5599906.234525392]]]}},
{"type":"Feature","id":1012,"properties":{"sol": "champ"},"geometry":{"type":"Polygon","coordinates":[[[500276.9990513899,5599975.225067932],[500262.7090804694,5600040.77558342],[500379.9288419323,5600107.746110074],[500433.2087335101,5600029.425494162],[500276.9990513899,5599975.225067932]]]}},
{"type":"Feature","id":1013,"properties":{"sol": "champ"},"geometry":{"type":"Polygon","coordinates":[[[500262.7090804694,5600040.77558342],[500257.2490915802,5600089.105963488],[500352.4888977714,5600148.66643187],[500379.9288419323,5600107.746110074],[500262.7090804694,5600040.77558342]]]}},
{"type":"Feature","id":1014,"properties":{"sol": "champ"},"geometry":{"type":"Polygon","coordinates":[[[500257.2490915802,5600089.105963488],[500258.9290881615,5600145.406406234],[500261.0290838881,5600183.226703651],[500301.44900163537,5600230.677076801],[500352.4888977714,5600148.66643187],[500257.2490915802,5600089.105963488]]]}},
{"type":"Feature","id":1015,"properties":{"sol": "champ"},"geometry":{"type":"Polygon","coordinates":[[[500352.4888977714,5600148.66643187],[500301.44900163537,5600230.677076801],[500354.23889421026,5600256.3372785915],[500376.1388496448,5600226.827046524],[500409.5587816367,5600172.006615417],[500352.4888977714,5600148.66643187]]]}},
{"type":"Feature","id":1016,"properties":{"sol": "champ"},"geometry":{"type":"Polygon","coordinates":[[[500433.2087335101,5600029.425494162],[500379.9288419323,5600107.746110074],[500481.0286361987,5600103.676078067],[500518.9785589723,5600038.665566826],[500433.2087335101,5600029.425494162]]]}},
{"type":"Feature","id":1017,"properties":{"sol": "champ"},"geometry":{"type":"Polygon","coordinates":[[[500379.9288419323,5600107.746110074],[500352.4888977714,5600148.66643187],[500409.5587816367,5600172.006615417],[500481.0286361987,5600103.676078067],[500379.9288419323,5600107.746110074]]]}},
{"type":"Feature","id":1018,"properties":{"sol": "champ"},"geometry":{"type":"Polygon","coordinates":[[[500539.6985168081,5599968.845017759],[500518.9785589723,5600038.665566826],[500634.0083248918,5600046.225626279],[500662.16826758755,5599978.69509522],[500539.6985168081,5599968.845017759]]]}},
{"type":"Feature","id":1019,"properties":{"sol": "champ"},"geometry":{"type":"Polygon","coordinates":[[[500558.58847836783,5599907.884538367],[500539.6985168081,5599968.845017759],[500662.16826758755,5599978.69509522],[500671.11824937473,5599908.764545288],[500558.58847836783,5599907.884538367]]]}},
{"type":"Feature","id":1020,"properties":{"sol": "champ"},"geometry":{"type":"Polygon","coordinates":[[[500243.13912029343,5599775.983501101],[500239.7691271512,5599759.583372131],[500187.5992333146,5599770.303456433],[500185.73923709965,5599835.763971213],[500263.48907888215,5599824.413881957],[500243.13912029343,5599775.983501101]]]}},
{"type":"Feature","id":1021,"properties":{"sol": "champ"},"geometry":{"type":"Polygon","coordinates":[[[500263.48907888215,5599824.413881957],[500185.73923709965,5599835.763971213],[500192.3492236486,5599872.464259824],[500285.1190348661,5599875.8742866395],[500263.48907888215,5599824.413881957]]]}},
{"type":"Feature","id":1022,"properties":{"sol": "champ"},"geometry":{"type":"Polygon","coordinates":[[[500185.73923709965,5599835.763971213],[500185.38380050514,5599835.826413395],[500184.38655763655,5599836.000241293],[500182.85110886605,5599836.265206933],[500180.881054566,5599836.601062344],[500178.5799951086,5599836.987559552],[500176.0515308662,5599837.404450586],[500173.39926221094,5599837.831487472],[500170.7267895152,5599838.248422238],[500168.1377131512,5599838.63500691],[500165.73563349125,5599838.970993518],[500163.6241509075,5599839.236134087],[500161.9068657724,5599839.410180645],[500160.6873784581,5599839.472885219],[500160.06928933685,5599839.403999838],[500153.0293036629,5599867.134217908],[500192.3492236486,5599872.464259824],[500185.73923709965,5599835.763971213]]]}},
{"type":"Feature","id":1023,"properties":{"sol": "champ"},"geometry":{"type":"Polygon","coordinates":[[[500192.3492236486,5599872.464259824],[500153.0293036629,5599867.134217908],[500139.64933089056,5599897.984460513],[500194.65921894787,5599906.234525392],[500192.3492236486,5599872.464259824]]]}},
{"type":"Feature","id":1024,"properties":{"sol": "champ"},"geometry":{"type":"Polygon","coordinates":[[[500192.3492236486,5599872.464259824],[500194.65921894787,5599906.234525392],[500281.43904235476,5599920.924640914],[500285.1190348661,5599875.8742866395],[500192.3492236486,5599872.464259824]]]}},
{"type":"Feature","id":1025,"properties":{"sol": "champ"},"geometry":{"type":"Polygon","coordinates":[[[500194.65921894787,5599906.234525392],[500192.3492236486,5599959.034940613],[500276.9990513899,5599975.225067932],[500281.43904235476,5599920.924640914],[500194.65921894787,5599906.234525392]]]}},
{"type":"Feature","id":1026,"properties":{"sol": "champ"},"geometry":{"type":"Polygon","coordinates":[[[500139.64933089056,5599897.984460513],[500133.599343202,5599944.884829337],[500192.3492236486,5599959.034940613],[500194.65921894787,5599906.234525392],[500139.64933089056,5599897.984460513]]]}},
{"type":"Feature","id":1027,"properties":{"sol": "champ"},"geometry":{"type":"Polygon","coordinates":[[[500192.3492236486,5599959.034940613],[500133.599343202,5599944.884829337],[500090.03943184455,5600015.795386976],[500193.9092204741,5600064.845772707],[500208.189191415,5600015.795386976],[500192.3492236486,5599959.034940613]]]}},
{"type":"Feature","id":1028,"properties":{"sol": "champ"},"geometry":{"type":"Polygon","coordinates":[[[500192.3492236486,5599959.034940613],[500208.189191415,5600015.795386976],[500262.7090804694,5600040.77558342],[500276.9990513899,5599975.225067932],[500192.3492236486,5599959.034940613]]]}},
{"type":"Feature","id":1029,"properties":{"sol": "champ"},"geometry":{"type":"Polygon","coordinates":[[[500208.189191415,5600015.795386976],[500193.9092204741,5600064.845772707],[500257.2490915802,5600089.105963488],[500262.7090804694,5600040.77558342],[500208.189191415,5600015.795386976]]]}},
{"type":"Feature","id":1030,"properties":{"sol": "champ"},"geometry":{"type":"Polygon","coordinates":[[[500258.9290881615,5600145.406406234],[500257.2490915802,5600089.105963488],[500193.9092204741,5600064.845772707],[500162.26928485994,5600126.886260591],[500261.0290838881,5600183.226703651],[500258.9290881615,5600145.406406234]]]}},
{"type":"Feature","id":1031,"properties":{"sol": "champ"},"geometry":{"type":"Polygon","coordinates":[[[500090.03943184455,5600015.795386976],[500063.2194864219,5600083.325918035],[500162.26928485994,5600126.886260591],[500193.9092204741,5600064.845772707],[500090.03943184455,5600015.795386976]]]}},
{"type":"Feature","id":1032,"properties":{"sol": "champ"},"geometry":{"type":"Polygon","coordinates":[[[500063.2194864219,5600083.325918035],[500043.8595258186,5600141.846378238],[500140.2293297103,5600175.7266446715],[500162.26928485994,5600126.886260591],[500063.2194864219,5600083.325918035]]]}},
{"type":"Feature","id":1033,"properties":{"sol": "champ"},"geometry":{"type":"Polygon","coordinates":[[[500162.26928485994,5600126.886260591],[500140.2293297103,5600175.7266446715],[500203.94920004316,5600211.5469263615],[500225.2491566987,5600203.486862977],[500261.0290838881,5600183.226703651],[500162.26928485994,5600126.886260591]]]}},
{"type":"Feature","id":1034,"properties":{"sol": "champ"},"geometry":{"type":"Polygon","coordinates":[[[500203.94920004316,5600211.5469263615],[500140.2293297103,5600175.7266446715],[500116.86937724677,5600209.856913071],[500204.5291988629,5600253.577256886],[500203.94920004316,5600211.5469263615]]]}},
{"type":"Feature","id":1035,"properties":{"sol": "champ"},"geometry":{"type":"Polygon","coordinates":[[[500043.8595258186,5600141.846378238],[500025.46956324135,5600164.266554549],[500116.86937724677,5600209.856913071],[500140.2293297103,5600175.7266446715],[500043.8595258186,5600141.846378238]]]}},
{"type":"Feature","id":1036,"properties":{"sol": "champ"},"geometry":{"type":"Polygon","coordinates":[[[500084.23944364727,5600257.517287871],[500051.88950947794,5600304.767659447],[500112.81938548834,5600340.127937519],[500174.96925901604,5600306.717674782],[500084.23944364727,5600257.517287871]]]}},
{"type":"Feature","id":1037,"properties":{"sol": "champ"},"geometry":{"type":"Polygon","coordinates":[[[500116.86937724677,5600209.856913071],[500084.23944364727,5600257.517287871],[500174.96925901604,5600306.717674782],[500204.5291988629,5600253.577256886],[500116.86937724677,5600209.856913071]]]}},
{"type":"Feature","id":1038,"properties":{"sol": "champ"},"geometry":{"type":"Polygon","coordinates":[[[500025.46956324135,5600164.266554549],[499990.61963415943,5600206.736888535],[500084.23944364727,5600257.517287871],[500116.86937724677,5600209.856913071],[500025.46956324135,5600164.266554549]]]}},
{"type":"Feature","id":1039,"properties":{"sol": "champ"},"geometry":{"type":"Polygon","coordinates":[[[499990.61963415943,5600206.736888535],[499955.89970481297,5600249.06722142],[500051.88950947794,5600304.767659447],[500084.23944364727,5600257.517287871],[499990.61963415943,5600206.736888535]]]}},
{"type":"Feature","id":1040,"properties":{"sol": "champ"},"geometry":{"type":"Polygon","coordinates":[[[500001.6596116936,5600118.406193905],[499915.18978765584,5600214.966953256],[499955.89970481297,5600249.06722142],[499990.61963415943,5600206.736888535],[500025.46956324135,5600164.266554549],[500043.8595258186,5600141.846378238],[500001.6596116936,5600118.406193905]]]}},
{"type":"Feature","id":1041,"properties":{"sol": "champ"},"geometry":{"type":"Polygon","coordinates":[[[500033.9995458832,5600068.585802118],[500001.6596116936,5600118.406193905],[500043.8595258186,5600141.846378238],[500063.2194864219,5600083.325918035],[500033.9995458832,5600068.585802118]]]}},
{"type":"Feature","id":1042,"properties":{"sol": "champ"},"geometry":{"type":"Polygon","coordinates":[[[500051.88950947794,5600304.767659447],[500025.46956324135,5600431.088652832],[500086.7094386209,5600446.078770714],[500112.81938548834,5600340.127937519],[500051.88950947794,5600304.767659447]]]}},
{"type":"Feature","id":1043,"properties":{"sol": "champ"},"geometry":{"type":"Polygon","coordinates":[[[499955.89970481297,5600249.06722142],[499945.1197267497,5600282.6874858085],[499923.99976972793,5600408.588475891],[500025.46956324135,5600431.088652832],[500051.88950947794,5600304.767659447],[499955.89970481297,5600249.06722142]]]}},
{"type":"Feature","id":1044,"properties":{"sol": "champ"},"geometry":{"type":"Polygon","coordinates":[[[500080.0894520923,5600482.699058695],[500022.69956887816,5600472.43897801],[500085.16944175476,5600606.390031398],[500124.24936222885,5600580.129824888],[500080.0894520923,5600482.699058695]]]}},
{"type":"Feature","id":1045,"properties":{"sol": "champ"},"geometry":{"type":"Polygon","coordinates":[[[500025.46956324135,5600431.088652832],[499923.99976972793,5600408.588475891],[499914.13978979253,5600453.038825448],[500022.69956887816,5600472.43897801],[500080.0894520923,5600482.699058695],[500086.7094386209,5600446.078770714],[500025.46956324135,5600431.088652832]]]}},
{"type":"Feature","id":1046,"properties":{"sol": "champ"},"geometry":{"type":"Polygon","coordinates":[[[499881.74985570466,5600264.907345986],[499850.78991870675,5600399.078401105],[499923.99976972793,5600408.588475891],[499945.1197267497,5600282.6874858085],[499881.74985570466,5600264.907345986]]]}},
{"type":"Feature","id":1047,"properties":{"sol": "champ"},"geometry":{"type":"Polygon","coordinates":[[[499915.18978765584,5600214.966953256],[499881.74985570466,5600264.907345986],[499945.1197267497,5600282.6874858085],[499955.89970481297,5600249.06722142],[499915.18978765584,5600214.966953256]]]}},
{"type":"Feature","id":1048,"properties":{"sol": "champ"},"geometry":{"type":"Polygon","coordinates":[[[499751.63012049254,5600600.979988853],[499710.2602046785,5600622.650159267],[499718.7301874425,5600648.340361294],[499789.0200444057,5600666.440503634],[499751.63012049254,5600600.979988853]]]}},
{"type":"Feature","id":1049,"properties":{"sol": "champ"},"geometry":{"type":"Polygon","coordinates":[[[499761.8500996954,5600552.839610279],[499735.01015431347,5600571.87976001],[499751.63012049254,5600600.979988853],[499789.0200444057,5600666.440503634],[499828.71996361815,5600662.540472964],[499761.8500996954,5600552.839610279]]]}},
{"type":"Feature","id":1050,"properties":{"sol": "champ"},"geometry":{"type":"Polygon","coordinates":[[[499803.54001485824,5600539.409504665],[499761.8500996954,5600552.839610279],[499828.71996361815,5600662.540472964],[499884.50985008816,5600657.060429868],[499803.54001485824,5600539.409504665]]]}},
{"type":"Feature","id":1051,"properties":{"sol": "champ"},"geometry":{"type":"Polygon","coordinates":[[[499838.9599427802,5600448.618790689],[499813.2199951599,5600495.549159748],[499803.54001485824,5600539.409504665],[499884.50985008816,5600657.060429868],[499948.3097202582,5600650.80038064],[499838.9599427802,5600448.618790689]]]}},
{"type":"Feature","id":1052,"properties":{"sol": "champ"},"geometry":{"type":"Polygon","coordinates":[[[499850.78991870675,5600399.078401105],[499838.9599427802,5600448.618790689],[499914.13978979253,5600453.038825448],[499923.99976972793,5600408.588475891],[499850.78991870675,5600399.078401105]]]}},
{"type":"Feature","id":1053,"properties":{"sol": "champ"},"geometry":{"type":"Polygon","coordinates":[[[499914.13978979253,5600453.038825448],[499838.9599427802,5600448.618790689],[499948.3097202582,5600650.80038064],[500001.4496121209,5600642.790317649],[499914.13978979253,5600453.038825448]]]}},
{"type":"Feature","id":1054,"properties":{"sol": "champ"},"geometry":{"type":"Polygon","coordinates":[[[500022.69956887816,5600472.43897801],[499914.13978979253,5600453.038825448],[500001.4496121209,5600642.790317649],[500034.9395439704,5600629.69021463],[500085.16944175476,5600606.390031398],[500022.69956887816,5600472.43897801]]]}},
{"type":"Feature","id":1055,"properties":{"sol": "champ"},"geometry":{"type":"Polygon","coordinates":[[[499789.0200444057,5600666.440503634],[499718.7301874425,5600648.340361294],[499730.13016424404,5600765.141279814],[499815.7599899911,5600755.691205499],[499789.0200444057,5600666.440503634]]]}},
{"type":"Feature","id":1056,"properties":{"sol": "champ"},"geometry":{"type":"Polygon","coordinates":[[[499884.50985008816,5600657.060429868],[499828.71996361815,5600662.540472964],[499789.0200444057,5600666.440503634],[499815.7599899911,5600755.691205499],[499903.31981181074,5600744.691118995],[499884.50985008816,5600657.060429868]]]}},
{"type":"Feature","id":1057,"properties":{"sol": "champ"},"geometry":{"type":"Polygon","coordinates":[[[499948.3097202582,5600650.80038064],[499884.50985008816,5600657.060429868],[499903.31981181074,5600744.691118995],[499971.73967257934,5600737.981066227],[499948.3097202582,5600650.80038064]]]}},
{"type":"Feature","id":1058,"properties":{"sol": "champ"},"geometry":{"type":"Polygon","coordinates":[[[500038.55889858434,5600730.624604296],[500038.33877045155,5600730.104956926],[500038.03714183357,5600729.39289105],[500037.6577920196,5600728.497314617],[500037.2045002988,5600727.427135575],[500036.68104596034,5600726.191261869],[500036.09120829345,5600724.798601449],[500035.4387665873,5600723.258062262],[500034.72750013106,5600721.578552255],[500033.9611882139,5600719.768979376],[500033.143610125,5600717.838251574],[500032.2785451536,5600715.795276795],[500031.3697725889,5600713.648962988],[500030.42107171996,5600711.408218098],[500029.4362218361,5600709.081950076],[500028.4190022264,5600706.679066868],[500027.37319218006,5600704.208476421],[500026.3025709863,5600701.679086684],[500025.21091793437,5600699.099805604],[500024.1020123133,5600696.479541129],[500022.97963341244,5600693.827201206],[500021.8475605208,5600691.151693784],[500020.70957292774,5600688.4619268095],[500019.5694499223,5600685.7668082295],[500018.43097079376,5600683.075245993],[500017.29791483126,5600680.396148048],[500016.174061324,5600677.738422341],[500015.06318956113,5600675.11097682],[500013.96907883184,5600672.522719433],[500012.89550842537,5600669.982558127],[500011.84625763085,5600667.499400849],[500010.8251057375,5600665.082155549],[500009.83583203447,5600662.739730173],[500008.882215811,5600660.481032669],[500007.9680363562,5600658.314970984],[500007.0970729593,5600656.250453067],[500006.27310490946,5600654.296386865],[500005.4999114959,5600652.461680326],[500004.7812720078,5600650.755241396],[500004.1209657343,5600649.185978024],[500003.5227719646,5600647.762798158],[500002.9904699879,5600646.494609746],[500002.5278390934,5600645.390320734],[500002.1386585703,5600644.458839071],[500001.8267077077,5600643.7090727035],[500001.59576579486,5600643.14992958],[500001.4496121209,5600642.790317649],[499948.3097202582,5600650.80038064],[499971.73967257934,5600737.981066227],[500038.73953623755,5600731.051011729],[500038.55889858434,5600730.624604296]]]}},
{"type":"Feature","id":1059,"properties":{"sol": "champ"},"geometry":{"type":"Polygon","coordinates":[[[500038.73953623755,5600731.051011729],[499971.73967257934,5600737.981066227],[499903.31981181074,5600744.691118995],[499815.7599899911,5600755.691205499],[499730.13016424404,5600765.141279814],[499753.93011581217,5600834.351824084],[500061.5094899017,5600796.401525644],[500038.73953623755,5600731.051011729]]]}},
{"type":"Feature","id":1060,"properties":{"sol": "champ"},"geometry":{"type":"Polygon","coordinates":[[[500368.84886447963,5600788.691465012],[500299.3590058884,5600830.33179247],[500298.40900782164,5600830.871796717],[500361.8188787853,5600872.522124254],[500415.358769834,5600822.411730187],[500368.84886447963,5600788.691465012]]]}},
{"type":"Feature","id":1061,"properties":{"sol": "champ"},"geometry":{"type":"Polygon","coordinates":[[[500382.2788371502,5600904.862378577],[500316.49897100934,5601050.623524839],[500352.7988971406,5601059.2035923125],[500425.61874895537,5600943.582683072],[500382.2788371502,5600904.862378577]]]}},
{"type":"Feature","id":1062,"properties":{"sol": "champ"},"geometry":{"type":"Polygon","coordinates":[[[500425.61874895537,5600943.582683072],[500352.7988971406,5601059.2035923125],[500392.8888155594,5601059.2035923125],[500455.9886871539,5600972.402909715],[500425.61874895537,5600943.582683072]]]}},
{"type":"Feature","id":1063,"properties":{"sol": "champ"},"geometry":{"type":"Polygon","coordinates":[[[500361.8188787853,5600872.522124254],[500279.5290462415,5600931.552588468],[500276.8090517766,5601051.94353522],[500316.49897100934,5601050.623524839],[500382.2788371502,5600904.862378577],[500361.8188787853,5600872.522124254]]]}},
{"type":"Feature","id":1064,"properties":{"sol": "champ"},"geometry":{"type":"Polygon","coordinates":[[[500298.40900782164,5600830.871796717],[500248.41910954885,5600859.482021707],[500279.5290462415,5600931.552588468],[500361.8188787853,5600872.522124254],[500298.40900782164,5600830.871796717]]]}},
{"type":"Feature","id":1065,"properties":{"sol": "champ"},"geometry":{"type":"Polygon","coordinates":[[[500061.5094899017,5600796.401525644],[499753.93011581217,5600834.351824084],[499823.17997489177,5600920.482501414],[500085.16944175476,5600884.292216814],[500061.5094899017,5600796.401525644]]]}},
{"type":"Feature","id":1066,"properties":{"sol": "champ"},"geometry":{"type":"Polygon","coordinates":[[[500085.16944175476,5600884.292216814],[499823.17997489177,5600920.482501414],[499863.71989239485,5600981.322979862],[499973.409669181,5600959.722809998],[500090.5494308067,5600936.6526285745],[500085.16944175476,5600884.292216814]]]}},
{"type":"Feature","id":1067,"properties":{"sol": "champ"},"geometry":{"type":"Polygon","coordinates":[[[500085.16944175476,5600606.390031398],[500034.9395439704,5600629.69021463],[500001.4496121209,5600642.790317649],[500001.59576579486,5600643.14992958],[500001.8267077077,5600643.7090727035],[500002.1386585703,5600644.458839071],[500002.5278390934,5600645.390320734],[500002.9904699879,5600646.494609746],[500003.5227719646,5600647.762798158],[500004.1209657343,5600649.185978024],[500004.7812720078,5600650.755241396],[500005.4999114959,5600652.461680326],[500006.27310490946,5600654.296386865],[500007.0970729593,5600656.250453067],[500007.9680363562,5600658.314970984],[500008.882215811,5600660.481032669],[500009.83583203447,5600662.739730173],[500010.8251057375,5600665.082155549],[500011.84625763085,5600667.499400849],[500012.89550842537,5600669.982558127],[500013.96907883184,5600672.522719433],[500015.06318956113,5600675.11097682],[500016.174061324,5600677.738422341],[500017.29791483126,5600680.396148048],[500018.43097079376,5600683.075245993],[500019.5694499223,5600685.7668082295],[500020.70957292774,5600688.4619268095],[500021.8475605208,5600691.151693784],[500022.97963341244,5600693.827201206],[500024.1020123133,5600696.479541129],[500025.21091793437,5600699.099805604],[500026.3025709863,5600701.679086684],[500027.37319218006,5600704.208476421],[500028.4190022264,5600706.679066868],[500029.4362218361,5600709.081950076],[500030.42107171996,5600711.408218098],[500031.3697725889,5600713.648962988],[500032.2785451536,5600715.795276795],[500033.143610125,5600717.838251574],[500033.9611882139,5600719.768979376],[500034.72750013106,5600721.578552255],[500035.4387665873,5600723.258062262],[500036.09120829345,5600724.798601449],[500036.68104596034,5600726.191261869],[500037.2045002988,5600727.427135575],[500037.6577920196,5600728.497314617],[500038.03714183357,5600729.39289105],[500038.33877045155,5600730.104956926],[500038.55889858434,5600730.624604296],[500038.73953623755,5600731.051011729],[500061.5094899017,5600796.401525644],[500184.6592392974,5600770.54132228],[500085.16944175476,5600606.390031398]]]}},
{"type":"Feature","id":1068,"properties":{"sol": "champ"},"geometry":{"type":"Polygon","coordinates":[[[500188.23923201225,5600778.611385742],[500184.6592392974,5600770.54132228],[500061.5094899017,5600796.401525644],[500085.16944175476,5600884.292216814],[500205.9591959529,5600860.212027448],[500188.23923201225,5600778.611385742]]]}},
{"type":"Feature","id":1069,"properties":{"sol": "champ"},"geometry":{"type":"Polygon","coordinates":[[[500205.9591959529,5600860.212027448],[500085.16944175476,5600884.292216814],[500090.5494308067,5600936.6526285745],[500216.68917411787,5600923.6725265],[500205.9591959529,5600860.212027448]]]}},
{"type":"Feature","id":1070,"properties":{"sol": "champ"},"geometry":{"type":"Polygon","coordinates":[[[500090.5494308067,5600936.6526285745],[499973.409669181,5600959.722809998],[500005.23960440845,5601088.903825874],[500111.69938776747,5601064.483633835],[500090.5494308067,5600936.6526285745]]]}},
{"type":"Feature","id":1071,"properties":{"sol": "champ"},"geometry":{"type":"Polygon","coordinates":[[[500090.5494308067,5600936.6526285745],[500111.69938776747,5601064.483633835],[500208.24919129285,5601049.303514459],[500208.27567317255,5601048.953113143],[500208.3081135973,5601048.5233753435],[500208.35276530084,5601047.931291753],[500208.409187,5601047.182371603],[500208.47693741147,5601046.282124122],[500208.5555752519,5601045.236058538],[500208.6446592381,5601044.04968408],[500208.74374808674,5601042.728509979],[500208.8524005146,5601041.278045462],[500208.9701752383,5601039.703799761],[500209.0966309746,5601038.011282102],[500209.2313264403,5601036.206001716],[500209.37382035196,5601034.293467831],[500209.5236714264,5601032.279189677],[500209.68043838034,5601030.1686764825],[500209.8436799305,5601027.967437478],[500210.0129547935,5601025.68098189],[500210.1878216862,5601023.314818949],[500210.3678393253,5601020.8744578855],[500210.5525664274,5601018.365407927],[500210.74156170926,5601015.793178302],[500210.9343838877,5601013.163278242],[500211.13059167936,5601010.481216974],[500211.3297438009,5601007.752503728],[500211.5313989692,5601004.982647732],[500211.7351159008,5601002.177158217],[500211.9404533126,5600999.34154441],[500212.14696992113,5600996.481315543],[500212.3542244432,5600993.601980843],[500212.5617755956,5600990.709049538],[500212.7691820949,5600987.80803086],[500212.9760026579,5600984.904434036],[500213.1817960013,5600982.003768296],[500213.3861208419,5600979.111542869],[500213.58853589627,5600976.233266984],[500213.7885998813,5600973.374449871],[500213.9858715135,5600970.540600758],[500214.1799095098,5600967.737228874],[500214.37027258676,5600964.969843448],[500214.55651946116,5600962.24395371],[500214.73820884974,5600959.565068889],[500214.9148994692,5600956.9386982145],[500215.0861500362,5600954.370350914],[500215.25151926756,5600951.8655362185],[500215.41056587995,5600949.429763356],[500215.5628485901,5600947.068541556],[500215.7079261147,5600944.787380046],[500215.84535717044,5600942.591788058],[500215.9747004741,5600940.487274819],[500216.0955147424,5600938.479349559],[500216.2073586921,5600936.573521508],[500216.3097910398,5600934.775299893],[500216.4023705023,5600933.090193944],[500216.48465579626,5600931.52371289],[500216.55620563845,5600930.081365962],[500216.6165787456,5600928.768662386],[500216.66533383436,5600927.591111393],[500216.7020296215,5600926.554222211],[500216.72622482374,5600925.663504071],[500216.73747815774,5600924.9244662],[500216.7353483403,5600924.342617829],[500216.71939408814,5600923.923468186],[500216.68917411787,5600923.6725265],[500090.5494308067,5600936.6526285745]]]}},
{"type":"Feature","id":1072,"properties":{"sol": "champ"},"geometry":{"type":"Polygon","coordinates":[[[500248.41910954885,5600859.482021707],[500205.9591959529,5600860.212027448],[500216.68917411787,5600923.6725265],[500216.71939408814,5600923.923468186],[500279.5290462415,5600931.552588468],[500248.41910954885,5600859.482021707]]]}},
{"type":"Feature","id":1073,"properties":{"sol": "champ"},"geometry":{"type":"Polygon","coordinates":[[[500216.71939408814,5600923.923468186],[500216.7353483403,5600924.342617829],[500216.73747815774,5600924.9244662],[500216.72622482374,5600925.663504071],[500216.7020296215,5600926.554222211],[500216.66533383436,5600927.591111393],[500216.6165787456,5600928.768662386],[500216.55620563845,5600930.081365962],[500216.48465579626,5600931.52371289],[500216.4023705023,5600933.090193944],[500216.3097910398,5600934.775299893],[500216.2073586921,5600936.573521508],[500216.0955147424,5600938.479349559],[500215.9747004741,5600940.487274819],[500215.84535717044,5600942.591788058],[500215.7079261147,5600944.787380046],[500215.5628485901,5600947.068541556],[500215.41056587995,5600949.429763356],[500215.25151926756,5600951.8655362185],[500215.0861500362,5600954.370350914],[500214.9148994692,5600956.9386982145],[500214.73820884974,5600959.565068889],[500214.55651946116,5600962.24395371],[500214.37027258676,5600964.969843448],[500214.1799095098,5600967.737228874],[500213.9858715135,5600970.540600758],[500213.7885998813,5600973.374449871],[500213.58853589627,5600976.233266984],[500213.3861208419,5600979.111542869],[500213.1817960013,5600982.003768296],[500212.9760026579,5600984.904434036],[500212.7691820949,5600987.80803086],[500212.5617755956,5600990.709049538],[500212.3542244432,5600993.601980843],[500212.14696992113,5600996.481315543],[500211.9404533126,5600999.34154441],[500211.7351159008,5601002.177158217],[500211.5313989692,5601004.982647732],[500211.3297438009,5601007.752503728],[500211.13059167936,5601010.481216974],[500210.9343838877,5601013.163278242],[500210.74156170926,5601015.793178302],[500210.5525664274,5601018.365407927],[500210.3678393253,5601020.8744578855],[500210.1878216862,5601023.314818949],[500210.0129547935,5601025.68098189],[500209.8436799305,5601027.967437478],[500209.68043838034,5601030.1686764825],[500209.5236714264,5601032.279189677],[500209.37382035196,5601034.293467831],[500209.2313264403,5601036.206001716],[500209.0966309746,5601038.011282102],[500208.9701752383,5601039.703799761],[500208.8524005146,5601041.278045462],[500208.74374808674,5601042.728509979],[500208.6446592381,5601044.04968408],[500208.5555752519,5601045.236058538],[500208.47693741147,5601046.282124122],[500208.409187,5601047.182371603],[500208.35276530084,5601047.931291753],[500208.3081135973,5601048.5233753435],[500208.27567317255,5601048.953113143],[500208.24919129285,5601049.303514459],[500276.8090517766,5601051.94353522],[500279.5290462415,5600931.552588468],[500216.71939408814,5600923.923468186],[500216.68917411787,5600923.6725265],[500216.71939408814,5600923.923468186]]]}},
{"type":"Feature","id":1074,"properties":{"sol": "champ"},"geometry":{"type":"Polygon","coordinates":[[[500455.9886871539,5600972.402909715],[500392.8888155594,5601059.2035923125],[500407.5787856659,5601109.3639867725],[500477.988642385,5601040.17344266],[500455.9886871539,5600972.402909715]]]}},
{"type":"Feature","id":1075,"properties":{"sol": "champ"},"geometry":{"type":"Polygon","coordinates":[[[500477.988642385,5601040.17344266],[500407.5787856659,5601109.3639867725],[500429.10874185344,5601131.264158995],[500478.53864126577,5601120.704075951],[500477.988642385,5601040.17344266]]]}},
{"type":"Feature","id":1076,"properties":{"sol": "champ"},"geometry":{"type":"Polygon","coordinates":[[[500415.358769834,5600822.411730187],[500361.8188787853,5600872.522124254],[500382.2788371502,5600904.862378577],[500449.5687002183,5600847.211925215],[500415.358769834,5600822.411730187]]]}},
{"type":"Feature","id":1077,"properties":{"sol": "champ"},"geometry":{"type":"Polygon","coordinates":[[[500449.5687002183,5600847.211925215],[500382.2788371502,5600904.862378577],[500425.61874895537,5600943.582683072],[500492.08861369215,5600878.042167664],[500449.5687002183,5600847.211925215]]]}},
{"type":"Feature","id":1078,"properties":{"sol": "champ"},"geometry":{"type":"Polygon","coordinates":[[[500535.3385256805,5600879.54217946],[500492.08861369215,5600878.042167664],[500425.61874895537,5600943.582683072],[500455.9886871539,5600972.402909715],[500456.264075112,5600972.140428391],[500456.60132215725,5600971.818987622],[500457.065393111,5600971.37666757],[500457.65162937174,5600970.8179088235],[500458.3553723378,5600970.147151975],[500459.17196340754,5600969.368837614],[500460.0967439794,5600968.48740633],[500461.12505545164,5600967.507298715],[500462.2522392227,5600966.432955359],[500463.4736366909,5600965.268816853],[500464.78458925465,5600964.019323786],[500466.1804383123,5600962.688916749],[500467.6565252622,5600961.282036334],[500469.2081915028,5600959.8031231295],[500470.83077843237,5600958.256617728],[500472.51962744934,5600956.646960718],[500474.2700799521,5600954.97859269],[500476.0774773389,5600953.255954236],[500477.93716100825,5600951.4834859455],[500479.84447235847,5600949.665628409],[500481.79475278786,5600947.806822217],[500483.7833436949,5600945.91150796],[500485.80558647786,5600943.98412623],[500487.85682253516,5600942.029117615],[500489.93239326513,5600940.050922707],[500492.0276400662,5600938.053982095],[500494.13790433673,5600936.042736371],[500496.25852747506,5600934.021626125],[500498.3848508796,5600931.995091948],[500500.51221594866,5600929.96757443],[500502.63596408063,5600927.943514161],[500504.75143667386,5600925.927351732],[500506.85397512675,5600923.9235277325],[500508.9389208377,5600921.936482755],[500511.001615205,5600919.970657389],[500513.0373996271,5600918.030492224],[500515.0416155023,5600916.120427851],[500517.009604229,5600914.244904861],[500518.9367072056,5600912.408363844],[500520.8182658304,5600910.615245392],[500522.64962150186,5600908.869990093],[500524.42611561826,5600907.177038539],[500526.14308957796,5600905.54083132],[500527.7958847794,5600903.965809027],[500529.379842621,5600902.456412249],[500530.89030450094,5600901.017081578],[500532.32261181774,5600899.6522576045],[500533.67210596974,5600898.366380919],[500534.9341283553,5600897.163892111],[500536.10402037273,5600896.04923177],[500537.1771234205,5600895.02684049],[500538.14877889695,5600894.101158858],[500539.01432820037,5600893.276627467],[500539.76911272923,5600892.557686906],[500540.4084738819,5600891.948777766],[500540.92775305663,5600891.454340637],[500541.3222916519,5600891.078816109],[500541.7185126975,5600890.702267222],[500535.3385256805,5600879.54217946]]]}},
{"type":"Feature","id":1079,"properties":{"sol": "champ"},"geometry":{"type":"Polygon","coordinates":[[[500541.7185126975,5600890.702267222],[500541.3222916519,5600891.078816109],[500540.92775305663,5600891.454340637],[500540.4084738819,5600891.948777766],[500539.76911272923,5600892.557686906],[500539.01432820037,5600893.276627467],[500538.14877889695,5600894.101158858],[500537.1771234205,5600895.02684049],[500536.10402037273,5600896.04923177],[500534.9341283553,5600897.163892111],[500533.67210596974,5600898.366380919],[500532.32261181774,5600899.6522576045],[500530.89030450094,5600901.017081578],[500529.379842621,5600902.456412249],[500527.7958847794,5600903.965809027],[500526.14308957796,5600905.54083132],[500524.42611561826,5600907.177038539],[500522.64962150186,5600908.869990093],[500520.8182658304,5600910.615245392],[500518.9367072056,5600912.408363844],[500517.009604229,5600914.244904861],[500515.0416155023,5600916.120427851],[500513.0373996271,5600918.030492224],[500511.001615205,5600919.970657389],[500508.9389208377,5600921.936482755],[500506.85397512675,5600923.9235277325],[500504.75143667386,5600925.927351732],[500502.63596408063,5600927.943514161],[500500.51221594866,5600929.96757443],[500498.3848508796,5600931.995091948],[500496.25852747506,5600934.021626125],[500494.13790433673,5600936.042736371],[500492.0276400662,5600938.053982095],[500489.93239326513,5600940.050922707],[500487.85682253516,5600942.029117615],[500485.80558647786,5600943.98412623],[500483.7833436949,5600945.91150796],[500481.79475278786,5600947.806822217],[500479.84447235847,5600949.665628409],[500477.93716100825,5600951.4834859455],[500476.0774773389,5600953.255954236],[500474.2700799521,5600954.97859269],[500472.51962744934,5600956.646960718],[500470.83077843237,5600958.256617728],[500469.2081915028,5600959.8031231295],[500467.6565252622,5600961.282036334],[500466.1804383123,5600962.688916749],[500464.78458925465,5600964.019323786],[500463.4736366909,5600965.268816853],[500462.2522392227,5600966.432955359],[500461.12505545164,5600967.507298715],[500460.0967439794,5600968.48740633],[500459.17196340754,5600969.368837614],[500458.3553723378,5600970.147151975],[500457.65162937174,5600970.8179088235],[500457.065393111,5600971.37666757],[500456.60132215725,5600971.818987622],[500456.264075112,5600972.140428391],[500455.9886871539,5600972.402909715],[500477.988642385,5601040.17344266],[500604.87838416995,5601009.103198324],[500541.7185126975,5600890.702267222]]]}},
{"type":"Feature","id":1080,"properties":{"sol": "champ"},"geometry":{"type":"Polygon","coordinates":[[[500604.87838416995,5601009.103198324],[500477.988642385,5601040.17344266],[500478.53864126577,5601120.704075951],[500633.7883253395,5601120.704075951],[500604.87838416995,5601009.103198324]]]}},
{"type":"Feature","id":1081,"properties":{"sol": "champ"},"geometry":{"type":"Polygon","coordinates":[[[500478.53864126577,5601120.704075951],[500502.9385916129,5601201.674712703],[500617.16835916037,5601227.584916459],[500633.7883253395,5601120.704075951],[500478.53864126577,5601120.704075951]]]}},
{"type":"Feature","id":1082,"properties":{"sol": "champ"},"geometry":{"type":"Polygon","coordinates":[[[500843.9278977147,5600049.785654275],[500806.9779729062,5600041.705590733],[500796.4079944156,5600090.04597088],[500792.34800267755,5600134.236318393],[500900.167783269,5600153.946473393],[500916.89774922427,5600062.3857533615],[500843.9278977147,5600049.785654275]]]}},
{"type":"Feature","id":1083,"properties":{"sol": "champ"},"geometry":{"type":"Polygon","coordinates":[[[500792.34800267755,5600134.236318393],[500781.61802451254,5600164.076553055],[500765.0880581503,5600199.906834824],[500881.25782174995,5600226.827046524],[500899.0777854871,5600159.886520105],[500900.167783269,5600153.946473393],[500792.34800267755,5600134.236318393]]]}},
{"type":"Feature","id":1084,"properties":{"sol": "champ"},"geometry":{"type":"Polygon","coordinates":[[[500765.0880581503,5600199.906834824],[500732.49812446936,5600255.68727348],[500731.3481268096,5600257.557288186],[500757.48807361594,5600268.6073750835],[500794.1579989943,5600276.627438153],[500818.79794885305,5600280.067465205],[500845.1578952117,5600285.217505705],[500881.25782174995,5600226.827046524],[500765.0880581503,5600199.906834824]]]}},
{"type":"Feature","id":1085,"properties":{"sol": "champ"},"geometry":{"type":"Polygon","coordinates":[[[500668.2982551133,5601232.294953499],[500711.4281673458,5601106.893967349],[500633.7883253395,5601120.704075951],[500617.16835916037,5601227.584916459],[500668.2982551133,5601232.294953499]]]}},
{"type":"Feature","id":1086,"properties":{"sol": "champ"},"geometry":{"type":"Polygon","coordinates":[[[500678.6582340312,5600982.032985445],[500711.4281673458,5601106.893967349],[500633.7883253395,5601120.704075951],[500604.87838416995,5601009.103198324],[500678.6582340312,5600982.032985445]]]}},
{"type":"Feature","id":1087,"properties":{"sol": "champ"},"geometry":{"type":"Polygon","coordinates":[[[500600.85839235043,5600844.701905477],[500678.6582340312,5600982.032985445],[500604.87838416995,5601009.103198324],[500541.7185126975,5600890.702267222],[500600.85839235043,5600844.701905477]]]}},
{"type":"Feature","id":1088,"properties":{"sol": "riviere"},"geometry":{"type":"Polygon","coordinates":[[[500804.9179770982,5601010.863212165],[500800.31798645895,5600958.16279773],[500778.9780298848,5600895.402304184],[500740.07810904447,5600825.121751498],[500691.2282084518,5600774.761355466],[500660.1982715964,5600799.241547978],[500707.4481754449,5600844.701905477],[500743.58810190175,5600907.952402877],[500763.1680620574,5600963.68284114],[500767.53805316467,5601008.0431899885],[500759.2380700548,5601157.034361651],[500730.8181278881,5601244.125046531],[500711.3881674272,5601308.115549751],[500702.81818486674,5601380.78612123],[500714.6881607119,5601452.086681936],[500737.28811472195,5601523.817246024],[500777.11803366983,5601523.817246024],[500751.72808533726,5601443.216612182],[500741.1981067653,5601379.876114074],[500748.72809144214,5601315.91561109],[500767.11805401935,5601255.355134844],[500796.9279933575,5601164.044416779],[500804.9179770982,5601010.863212165]]]}},
{"type":"Feature","id":1089,"properties":{"sol": "riviere"},"geometry":{"type":"Polygon","coordinates":[[[500645.3583017951,5600729.380998596],[500622.74834780535,5600709.230840135],[500595.99840224034,5600739.171075584],[500660.1982715964,5600799.241547978],[500691.2282084518,5600774.761355466],[500645.3583017951,5600729.380998596]]]}},
{"type":"Feature","id":1090,"properties":{"sol": "riviere"},"geometry":{"type":"Polygon","coordinates":[[[500595.99840224034,5600739.171075584],[500622.74834780535,5600709.230840135],[500586.8084209415,5600680.750616168],[500556.3184829872,5600707.200824171],[500595.99840224034,5600739.171075584]]]}},
{"type":"Feature","id":1091,"properties":{"sol": "riviere"},"geometry":{"type":"Polygon","coordinates":[[[500556.3184829872,5600707.200824171],[500586.8084209415,5600680.750616168],[500583.58842749405,5600669.850530449],[500578.0884386863,5600655.030413904],[500576.9084410875,5600638.200281553],[500573.81844737555,5600586.779877184],[500568.0884590358,5600573.769774873],[500535.66852500895,5600521.809366258],[500549.01849784236,5600489.86911508],[500568.5484580997,5600484.0490693115],[500588.4884175228,5600478.809028104],[500608.7483762947,5600466.058927838],[500629.3983342729,5600449.898800755],[500637.69831738283,5600435.758689557],[500599.8783943447,5600420.308568058],[500571.2784525443,5600441.98873855],[500512.68857177213,5600464.608916434],[500504.2385889675,5600485.169078119],[500497.47860272374,5600502.919217706],[500495.86860600003,5600528.3094173735],[500507.4685823946,5600557.709648577],[500534.49852738983,5600596.789955903],[500536.8485226077,5600650.470378045],[500546.95850203437,5600688.000673182],[500556.3184829872,5600707.200824171]]]}},
{"type":"Feature","id":1092,"properties":{"sol": "riviere"},"geometry":{"type":"Polygon","coordinates":[[[501153.51726771396,5599054.127824445],[501124.47732680896,5599054.127824445],[501152.1372705222,5599321.769929176],[501145.677283668,5599389.590462515],[501140.5872940259,5599442.950882141],[501122.19733144867,5599499.96133047],[501039.37749998335,5599620.242276356],[500978.63762358634,5599773.083478295],[500915.60775184934,5599835.483969011],[500848.46788847604,5599900.384479388],[500823.55793916667,5599935.644756673],[500822.4779413644,5599937.644772401],[500794.02799925883,5599990.09518487],[500772.908042237,5600029.025491017],[500760.7680669413,5600084.525927471],[500756.9180747759,5600126.366256502],[500748.2680923782,5600150.426445711],[500733.12812318734,5600183.246703809],[500702.89818470395,5600235.947118244],[500701.84818684065,5600237.777132635],[500701.68818716623,5600238.03713468],[500622.3983485176,5600368.858163453],[500599.8783943447,5600420.308568058],[500637.69831738283,5600435.758689557],[500654.3082835823,5600396.0283771185],[500672.0382475026,5600369.428167935],[500699.11819239607,5600312.697721808],[500731.3481268096,5600257.557288186],[500732.49812446936,5600255.68727348],[500765.0880581503,5600199.906834824],[500781.61802451254,5600164.076553055],[500792.34800267755,5600134.236318393],[500796.4079944156,5600090.04597088],[500806.9779729062,5600041.705590733],[500854.1878768361,5599954.6749063255],[500875.9178326166,5599923.924664507],[500940.8577004668,5599861.144170802],[501009.317561154,5599793.373637857],[501071.3374349463,5599637.312410595],[501154.8472650075,5599516.031456844],[501176.0572218462,5599450.270939705],[501188.27719697903,5599321.95993067],[501153.51726771396,5599054.127824445]]]}}
]
}
