{
"type": "FeatureCollection",
"name": "paysage",
"crs": "EPSG:25832",
"features": [
{"type":"Feature","id":1,"properties":{"genre": "relief", "note": "dessiné dans relief"},"geometry":{"type":"Polygon","coordinates":[[[501152.1372705222,5599321.769929176],[501124.47732680896,5599054.127824445],[498912.8218274305,5599054.127824445],[498912.8218274305,5601523.817246024],[499589.9304495443,5601523.817246024],[499625.6503768558,5601414.416385697],[499589.25045092806,5601211.674791343],[499670.5402855068,5600879.54217946],[499597.12043491297,5600717.3809042275],[499514.7706024913,5600667.280510239],[499557.0105165349,5600622.900161233],[499694.30023715633,5600609.060052395],[499781.42005987134,5600497.629176105],[499760.30010284955,5600392.628350381],[499842.1399363091,5600205.736880671],[500029.58955485735,5600037.625558647],[500129.63935126044,5599864.654198405],[500134.9193405159,5599724.72309799],[500162.26928485994,5599597.992101381],[500209.3291890951,5599553.111748443],[500277.11905114574,5599645.522475159],[500290.7090234907,5599759.043367884],[500325.6289524302,5599827.693907751],[500627.42833828175,5599827.693907751],[500703.38818370685,5599669.282662008],[500894.07779566187,5599669.282662008],[501009.0775616424,5599555.751769204],[501072.4874326061,5599436.460831103],[501145.677283668,5599389.590462515],[501152.1372705222,5599321.769929176]]]}},
{"type":"Feature","id":2,"properties":{"genre": "relief", "note": "dessiné dans relief"},"geometry":{"type":"Polygon","coordinates":[[[501764.156025091,5601523.817246024],[501764.156025091,5599054.127824445],[501153.51726771396,5599054.127824445],[501188.27719697903,5599321.95993067],[501237.44709692046,5599543.871675779],[501213.68714527093,5599597.992101381],[501155.60726346093,5599653.442537442],[501065.83744613855,5599795.873657517],[501026.23752672266,5599929.3347070515],[500998.84758246,5600062.3857533615],[501011.71755627013,5600250.857235497],[500972.11763685424,5600385.268292502],[500976.0776287958,5600481.369048236],[501075.5274264199,5600532.619451268],[501066.94744387973,5600582.619844469],[500998.84758246,5600619.6401355965],[500990.9275985768,5600733.711032647],[500982.01761670824,5600860.212027448],[500961.22765901487,5600904.422375117],[500972.11763685424,5601076.153725608],[500916.677749672,5601137.204205708],[500961.22765901487,5601299.575482591],[500894.07779566187,5601450.056665972],[500924.287734186,5601523.817246024],[501764.156025091,5601523.817246024]]]}},
{"type":"Feature","id":3,"properties":{"genre": "bois", "note": "dessiné dans bois"},"geometry":{"type":"Polygon","coordinates":[[[500239.7691271512,5599759.583372131],[500215.0091775366,5599639.032424121],[500209.3291890951,5599553.111748443],[500162.26928485994,5599597.992101381],[500134.9193405159,5599724.72309799],[500129.63935126044,5599864.654198405],[500029.58955485735,5600037.625558647],[499842.1399363091,5600205.736880671],[499760.30010284955,5600392.628350381],[499781.42005987134,5600497.629176105],[499694.30023715633,5600609.060052395],[499557.0105165349,5600622.900161233],[499514.7706024913,5600667.280510239],[499621.70038489386,5600657.810435766],[499718.7301874425,5600648.340361294],[499710.2602046785,5600622.650159267],[499751.63012049254,5600600.979988853],[499735.01015431347,5600571.87976001],[499761.8500996954,5600552.839610279],[499803.54001485824,5600539.409504665],[499813.2199951599,5600495.549159748],[499838.9599427802,5600448.618790689],[499850.78991870675,5600399.078401105],[499881.74985570466,5600264.907345986],[499915.18978765584,5600214.966953256],[500001.6596116936,5600118.406193905],[500033.9995458832,5600068.585802118],[500063.2194864219,5600083.325918035],[500090.03943184455,5600015.795386976],[500133.599343202,5599944.884829337],[500139.64933089056,5599897.984460513],[500153.0293036629,5599867.134217908],[500160.06928933685,5599839.403999838],[500160.6873784581,5599839.472885219],[500161.9068657724,5599839.410180645],[500163.6241509075,5599839.236134087],[500165.73563349125,5599838.970993518],[500168.1377131512,5599838.63500691],[500170.7267895152,5599838.248422238],[500173.39926221094,5599837.831487472],[500176.0515308662,5599837.404450586],[500178.5799951086,5599836.987559552],[500180.881054566,5599836.601062344],[500182.85110886605,5599836.265206933],[500184.38655763655,5599836.000241293],[500185.38380050514,5599835.826413395],[500185.73923709965,5599835.763971213],[500187.5992333146,5599770.303456433],[500239.7691271512,5599759.583372131]]]}},
{"type":"Feature","id":4,"properties":{"genre": "bois", "note": "dessiné dans bois"},"geometry":{"type":"Polygon","coordinates":[[[501145.677283668,5599389.590462515],[501072.4874326061,5599436.460831103],[501009.0775616424,5599555.751769204],[500894.07779566187,5599669.282662008],[500703.38818370685,5599669.282662008],[500627.42833828175,5599827.693907751],[500325.6289524302,5599827.693907751],[500290.7090234907,5599759.043367884],[500277.11905114574,5599645.522475159],[500209.3291890951,5599553.111748443],[500215.0091775366,5599639.032424121],[500239.7691271512,5599759.583372131],[500243.13912029343,5599775.983501101],[500263.48907888215,5599824.413881957],[500285.1190348661,5599875.8742866395],[500470.3086580134,5599906.234525392],[500558.58847836783,5599907.884538367],[500671.11824937473,5599908.764545288],[500764.4480594527,5599824.413881957],[500978.63762358634,5599773.083478295],[501039.37749998335,5599620.242276356],[501122.19733144867,5599499.96133047],[501140.5872940259,5599442.950882141],[501145.677283668,5599389.590462515]]]}},
{"type":"Feature","id":5,"properties":{"genre": "bois", "note": "dessiné dans bois"},"geometry":{"type":"Polygon","coordinates":[[[501237.44709692046,5599543.871675779],[501188.27719697903,5599321.95993067],[501176.0572218462,5599450.270939705],[501154.8472650075,5599516.031456844],[501071.3374349463,5599637.312410595],[501009.317561154,5599793.373637857],[500940.8577004668,5599861.144170802],[500875.9178326166,5599923.924664507],[500854.1878768361,5599954.6749063255],[500806.9779729062,5600041.705590733],[500843.9278977147,5600049.785654275],[500916.89774922427,5600062.3857533615],[500900.167783269,5600153.946473393],[500899.0777854871,5600159.886520105],[500881.25782174995,5600226.827046524],[500845.1578952117,5600285.217505705],[500784.7380181635,5600412.428506089],[500775.8680362135,5600469.368953868],[500799.20798871777,5600505.079234692],[500882.79781861615,5600543.009532975],[501004.90757012815,5600549.099580867],[501075.5274264199,5600532.619451268],[500976.0776287958,5600481.369048236],[500972.11763685424,5600385.268292502],[501011.71755627013,5600250.857235497],[500998.84758246,5600062.3857533615],[501026.23752672266,5599929.3347070515],[501065.83744613855,5599795.873657517],[501155.60726346093,5599653.442537442],[501213.68714527093,5599597.992101381],[501237.44709692046,5599543.871675779]]]}},
{"type":"Feature","id":6,"properties":{"genre": "bois", "note": "dessiné dans bois"},"geometry":{"type":"Polygon","coordinates":[[[501075.5274264199,5600532.619451268],[501004.90757012815,5600549.099580867],[500882.79781861615,5600543.009532975],[500799.20798871777,5600505.079234692],[500721.5681467114,5600565.559710309],[500737.66811394866,5600587.02987915],[500810.7179652955,5600670.350534381],[500748.5580917881,5600724.960963837],[500691.2282084518,5600774.761355466],[500740.07810904447,5600825.121751498],[500778.9780298848,5600895.402304184],[500800.31798645895,5600958.16279773],[500804.9179770982,5601010.863212165],[500796.9279933575,5601164.044416779],[500767.11805401935,5601255.355134844],[500748.72809144214,5601315.91561109],[500741.1981067653,5601379.876114074],[500751.72808533726,5601443.216612182],[500777.11803366983,5601523.817246024],[500924.287734186,5601523.817246024],[500894.07779566187,5601450.056665972],[500961.22765901487,5601299.575482591],[500916.677749672,5601137.204205708],[500972.11763685424,5601076.153725608],[500961.22765901487,5600904.422375117],[500982.01761670824,5600860.212027448],[500990.9275985768,5600733.711032647],[500998.84758246,5600619.6401355965],[501066.94744387973,5600582.619844469],[501075.5274264199,5600532.619451268]]]}},
{"type":"Feature","id":7,"properties":{"genre": "bois", "note": "dessiné dans bois"},"geometry":{"type":"Polygon","coordinates":[[[500767.53805316467,5601008.0431899885],[500763.1680620574,5600963.68284114],[500743.58810190175,5600907.952402877],[500707.4481754449,5600844.701905477],[500660.1982715964,5600799.241547978],[500601.45839112945,5600845.481911611],[500678.6582340312,5600982.032985445],[500711.4281673458,5601106.893967349],[500668.2982551133,5601232.294953499],[500617.16835916037,5601227.584916459],[500611.3083710852,5601265.245212619],[500587.74841902865,5601465.236785348],[500587.74841902865,5601523.817246024],[500737.28811472195,5601523.817246024],[500714.6881607119,5601452.086681936],[500702.81818486674,5601380.78612123],[500711.3881674272,5601308.115549751],[500730.8181278881,5601244.125046531],[500759.2380700548,5601157.034361651],[500767.53805316467,5601008.0431899885]]]}},
{"type":"Feature","id":8,"properties":{"genre": "bois", "note": "dessiné dans bois"},"geometry":{"type":"Polygon","coordinates":[[[500617.16835916037,5601227.584916459],[500502.9385916129,5601201.674712703],[500478.53864126577,5601120.704075951],[500429.10874185344,5601131.264158995],[500407.5787856659,5601109.3639867725],[500392.8888155594,5601059.2035923125],[500352.7988971406,5601059.2035923125],[500316.49897100934,5601050.623524839],[500276.8090517766,5601051.94353522],[500208.24919129285,5601049.303514459],[500111.69938776747,5601064.483633835],[500005.23960440845,5601088.903825874],[499973.409669181,5600959.722809998],[499863.71989239485,5600981.322979862],[499823.17997489177,5600920.482501414],[499753.93011581217,5600834.351824084],[499730.13016424404,5600765.141279814],[499718.7301874425,5600648.340361294],[499621.70038489386,5600657.810435766],[499514.7706024913,5600667.280510239],[499597.12043491297,5600717.3809042275],[499670.5402855068,5600879.54217946],[499589.25045092806,5601211.674791343],[499625.6503768558,5601414.416385697],[499589.9304495443,5601523.817246024],[500587.74841902865,5601523.817246024],[500587.74841902865,5601465.236785348],[500611.3083710852,5601265.245212619],[500617.16835916037,5601227.584916459]]]}}
]
}
