{
"type": "FeatureCollection",
"name": "routes",
"crs": "EPSG:25832",
"features": [
{"type":"Feature","id":1,"properties":{"hierarchy": "Boulevard"},"geometry":{"type":"MultiLineString","coordinates":[[[500604.9817192373,5601009.312123858],[500541.7191575635,5600890.694890862]]]}},
{"type":"Feature","id":2,"properties":{"hierarchy": "Boulevard"},"geometry":{"type":"MultiLineString","coordinates":[[[500541.7191575635,5600890.694890862],[500535.3297131025,5600879.539438744]]]}},
{"type":"Feature","id":3,"properties":{"hierarchy": "Boulevard"},"geometry":{"type":"MultiLineString","coordinates":[[[500535.3297131025,5600879.539438744],[500490.60579337383,5600790.824778299],[500482.9724338608,5600765.28053689]]]}},
{"type":"Feature","id":4,"properties":{"hierarchy": "Boulevard"},"geometry":{"type":"MultiLineString","coordinates":[[[500482.9724338608,5600765.28053689],[500466.41088597965,5600716.773698092]]]}},
{"type":"Feature","id":5,"properties":{"hierarchy": "Boulevard"},"geometry":{"type":"MultiLineString","coordinates":[[[500466.41088597965,5600716.773698092],[500450.9895349312,5600652.943376284]]]}},
{"type":"Feature","id":6,"properties":{"hierarchy": "Boulevard"},"geometry":{"type":"MultiLineString","coordinates":[[[500450.9895349312,5600652.943376284],[500436.35054648994,5600592.866445074]]]}},
{"type":"Feature","id":7,"properties":{"hierarchy": "Boulevard"},"geometry":{"type":"MultiLineString","coordinates":[[[500436.35054648994,5600592.866445074],[500420.22060822713,5600489.48820439]]]}},
{"type":"Feature","id":8,"properties":{"hierarchy": "Boulevard"},"geometry":{"type":"MultiLineString","coordinates":[[[500420.22060822713,5600489.48820439],[500417.7554426096,5600431.086269712]]]}},
{"type":"Feature","id":9,"properties":{"hierarchy": "Boulevard"},"geometry":{"type":"MultiLineString","coordinates":[[[500417.7554426096,5600431.086269712],[500416.1587194865,5600416.592724579]]]}},
{"type":"Feature","id":10,"properties":{"hierarchy": "Boulevard"},"geometry":{"type":"MultiLineString","coordinates":[[[500416.1587194865,5600416.592724579],[500414.39624708204,5600400.594663946]]]}},
{"type":"Feature","id":11,"properties":{"hierarchy": "Boulevard"},"geometry":{"type":"MultiLineString","coordinates":[[[500414.39624708204,5600400.594663946],[500412.5891331326,5600383.63272568],[500412.0063454473,5600380.447162735]]]}},
{"type":"Feature","id":12,"properties":{"hierarchy": "Boulevard"},"geometry":{"type":"MultiLineString","coordinates":[[[500412.0063454473,5600380.447162735],[500398.95841688075,5600309.126167451]]]}},
{"type":"Feature","id":13,"properties":{"hierarchy": "Boulevard"},"geometry":{"type":"MultiLineString","coordinates":[[[500398.95841688075,5600309.126167451],[500390.1602687374,5600290.06351314],[500354.2344971521,5600256.3372785915]]]}},
{"type":"Feature","id":14,"properties":{"hierarchy": "Boulevard"},"geometry":{"type":"MultiLineString","coordinates":[[[500354.2344971521,5600256.3372785915],[500301.44560829207,5600230.676013173]]]}},
{"type":"Feature","id":15,"properties":{"hierarchy": "Boulevard"},"geometry":{"type":"MultiLineString","coordinates":[[[500301.44560829207,5600230.676013173],[500261.0264831939,5600183.230837376]]]}},
{"type":"Feature","id":16,"properties":{"hierarchy": "Boulevard"},"geometry":{"type":"MultiLineString","coordinates":[[[500261.0264831939,5600183.230837376],[500258.92546171555,5600145.412450766],[500257.2446445329,5600089.105075147],[500262.70730037655,5600040.781581145],[500276.99424642924,5599975.229711021]]]}},
{"type":"Feature","id":17,"properties":{"hierarchy": "Boulevard"},"geometry":{"type":"MultiLineString","coordinates":[[[500412.0063454473,5600380.447162735],[500464.3952461461,5600358.2195039885]]]}},
{"type":"Feature","id":18,"properties":{"hierarchy": "Boulevard"},"geometry":{"type":"MultiLineString","coordinates":[[[500464.3952461461,5600358.2195039885],[500482.0092892247,5600348.894422359]]]}},
{"type":"Feature","id":19,"properties":{"hierarchy": "Boulevard"},"geometry":{"type":"MultiLineString","coordinates":[[[500482.0092892247,5600348.894422359],[500508.6030405395,5600318.501563713]]]}},
{"type":"Feature","id":20,"properties":{"hierarchy": "Boulevard"},"geometry":{"type":"MultiLineString","coordinates":[[[500508.6030405395,5600318.501563713],[500519.65498913784,5600307.449615114]]]}},
{"type":"Feature","id":21,"properties":{"hierarchy": "Boulevard"},"geometry":{"type":"MultiLineString","coordinates":[[[500519.65498913784,5600307.449615114],[500534.8514184606,5600287.072584886],[500551.08396796446,5600241.483296919]]]}},
{"type":"Feature","id":22,"properties":{"hierarchy": "Boulevard"},"geometry":{"type":"MultiLineString","coordinates":[[[500551.08396796446,5600241.483296919],[500566.0797925178,5600205.73637041]]]}},
{"type":"Feature","id":23,"properties":{"hierarchy": "Boulevard"},"geometry":{"type":"MultiLineString","coordinates":[[[500566.0797925178,5600205.73637041],[500603.9002368336,5600118.410943034]]]}},
{"type":"Feature","id":24,"properties":{"hierarchy": "Boulevard"},"geometry":{"type":"MultiLineString","coordinates":[[[500603.9002368336,5600118.410943034],[500663.6546420769,5599975.13302869]]]}},
{"type":"Feature","id":25,"properties":{},"geometry":{"type":"MultiLineString","coordinates":[[[500464.3952461461,5600358.2195039885],[500444.5504169294,5600325.5109974425],[500467.4406714022,5600290.921279573]]]}},
{"type":"Feature","id":26,"properties":{},"geometry":{"type":"MultiLineString","coordinates":[[[500467.4406714022,5600290.921279573],[500508.6030405395,5600318.501563713]]]}},
{"type":"Feature","id":27,"properties":{},"geometry":{"type":"MultiLineString","coordinates":[[[500398.95841688075,5600309.126167451],[500425.7295410295,5600300.077381362],[500442.7700638037,5600274.898101442]]]}},
{"type":"Feature","id":28,"properties":{},"geometry":{"type":"MultiLineString","coordinates":[[[500442.7700638037,5600274.898101442],[500467.4406714022,5600290.921279573]]]}},
{"type":"Feature","id":29,"properties":{},"geometry":{"type":"MultiLineString","coordinates":[[[500442.7700638037,5600274.898101442],[500376.1339896717,5600226.828567049]]]}},
{"type":"Feature","id":30,"properties":{},"geometry":{"type":"MultiLineString","coordinates":[[[500376.1339896717,5600226.828567049],[500354.2344971521,5600256.3372785915]]]}},
{"type":"Feature","id":31,"properties":{},"geometry":{"type":"MultiLineString","coordinates":[[[500354.2344971521,5600256.3372785915],[500292.9550035508,5600328.93898618]]]}},
{"type":"Feature","id":32,"properties":{},"geometry":{"type":"MultiLineString","coordinates":[[[500292.9550035508,5600328.93898618],[500340.8482367414,5600376.410252558]]]}},
{"type":"Feature","id":33,"properties":{},"geometry":{"type":"MultiLineString","coordinates":[[[500340.8482367414,5600376.410252558],[500348.02167254966,5600385.271555616]]]}},
{"type":"Feature","id":34,"properties":{},"geometry":{"type":"MultiLineString","coordinates":[[[500348.02167254966,5600385.271555616],[500412.0063454473,5600380.447162735]]]}},
{"type":"Feature","id":35,"properties":{},"geometry":{"type":"MultiLineString","coordinates":[[[500292.9550035508,5600328.93898618],[500210.11802827695,5600415.001803449]]]}},
{"type":"Feature","id":36,"properties":{},"geometry":{"type":"MultiLineString","coordinates":[[[500210.11802827695,5600415.001803449],[500237.8219345891,5600456.322884051]]]}},
{"type":"Feature","id":37,"properties":{},"geometry":{"type":"MultiLineString","coordinates":[[[500237.8219345891,5600456.322884051],[500302.6209018957,5600419.227823056]]]}},
{"type":"Feature","id":38,"properties":{},"geometry":{"type":"MultiLineString","coordinates":[[[500302.6209018957,5600419.227823056],[500340.8482367414,5600376.410252558]]]}},
{"type":"Feature","id":39,"properties":{},"geometry":{"type":"MultiLineString","coordinates":[[[500348.02167254966,5600385.271555616],[500348.6256729613,5600419.156676091]]]}},
{"type":"Feature","id":40,"properties":{},"geometry":{"type":"MultiLineString","coordinates":[[[500348.6256729613,5600419.156676091],[500345.5851093149,5600489.677271775]]]}},
{"type":"Feature","id":41,"properties":{},"geometry":{"type":"MultiLineString","coordinates":[[[500345.5851093149,5600489.677271775],[500320.9558677492,5600490.109363732]]]}},
{"type":"Feature","id":42,"properties":{},"geometry":{"type":"MultiLineString","coordinates":[[[500320.9558677492,5600490.109363732],[500302.6209018957,5600419.227823056]]]}},
{"type":"Feature","id":43,"properties":{},"geometry":{"type":"MultiLineString","coordinates":[[[500112.8138451123,5600340.125723752],[500143.7713253226,5600357.04063562],[500181.2853491746,5600382.157682046],[500210.11802827695,5600415.001803449]]]}},
{"type":"Feature","id":44,"properties":{},"geometry":{"type":"MultiLineString","coordinates":[[[500086.70743396593,5600446.083284885],[500108.53724475345,5600451.827971933],[500132.281951224,5600461.402450349],[500154.8777202848,5600473.274803584],[500179.38838502864,5600491.274823006],[500192.02669653716,5600503.530155377]]]}},
{"type":"Feature","id":45,"properties":{},"geometry":{"type":"MultiLineString","coordinates":[[[500192.02669653716,5600503.530155377],[500209.3238843632,5600483.291770344]]]}},
{"type":"Feature","id":46,"properties":{},"geometry":{"type":"MultiLineString","coordinates":[[[500209.3238843632,5600483.291770344],[500237.8219345891,5600456.322884051]]]}},
{"type":"Feature","id":47,"properties":{},"geometry":{"type":"MultiLineString","coordinates":[[[500192.02669653716,5600503.530155377],[500124.23938935495,5600580.125982703]]]}},
{"type":"Feature","id":48,"properties":{},"geometry":{"type":"MultiLineString","coordinates":[[[500209.3238843632,5600483.291770344],[500232.24661104433,5600542.757974342]]]}},
{"type":"Feature","id":49,"properties":{},"geometry":{"type":"MultiLineString","coordinates":[[[500232.24661104433,5600542.757974342],[500195.03870686627,5600568.006195035],[500177.7636084979,5600602.888605202],[500174.1092607661,5600622.489197581]]]}},
{"type":"Feature","id":50,"properties":{"hierarchy": "Boulevard"},"geometry":{"type":"MultiLineString","coordinates":[[[499948.304377248,5600650.7976618605],[500001.4449810196,5600642.790173621],[500034.9308409305,5600629.687011047],[500085.1596307968,5600606.392499805]]]}},
{"type":"Feature","id":51,"properties":{"hierarchy": "Boulevard"},"geometry":{"type":"MultiLineString","coordinates":[[[500085.1596307968,5600606.392499805],[500174.1092607661,5600622.489197581]]]}},
{"type":"Feature","id":52,"properties":{"hierarchy": "Boulevard"},"geometry":{"type":"MultiLineString","coordinates":[[[500174.1092607661,5600622.489197581],[500223.05889143696,5600634.475580706]]]}},
{"type":"Feature","id":53,"properties":{"hierarchy": "Boulevard"},"geometry":{"type":"MultiLineString","coordinates":[[[500223.05889143696,5600634.475580706],[500260.3047759383,5600648.338398704]]]}},
{"type":"Feature","id":54,"properties":{"hierarchy": "Boulevard"},"geometry":{"type":"MultiLineString","coordinates":[[[500260.3047759383,5600648.338398704],[500277.8420758156,5600654.184165331],[500290.7027623923,5600649.340530126]]]}},
{"type":"Feature","id":55,"properties":{"hierarchy": "Boulevard"},"geometry":{"type":"MultiLineString","coordinates":[[[500290.7027623923,5600649.340530126],[500325.53366624564,5600638.848809917],[500357.66636060056,5600606.066970222],[500380.54873385327,5600586.754896342],[500392.8866509108,5600575.753476587]]]}},
{"type":"Feature","id":56,"properties":{"hierarchy": "Boulevard"},"geometry":{"type":"MultiLineString","coordinates":[[[500392.8866509108,5600575.753476587],[500404.67575589824,5600581.491536537]]]}},
{"type":"Feature","id":57,"properties":{"hierarchy": "Boulevard"},"geometry":{"type":"MultiLineString","coordinates":[[[500404.67575589824,5600581.491536537],[500436.35054648994,5600592.866445074]]]}},
{"type":"Feature","id":58,"properties":{"hierarchy": "Boulevard"},"geometry":{"type":"MultiLineString","coordinates":[[[500436.35054648994,5600592.866445074],[500507.46539959457,5600557.709784071]]]}},
{"type":"Feature","id":59,"properties":{"hierarchy": "Boulevard"},"geometry":{"type":"MultiLineString","coordinates":[[[500085.1596307968,5600606.392499805],[500124.23938935495,5600580.125982703]]]}},
{"type":"Feature","id":60,"properties":{},"geometry":{"type":"MultiLineString","coordinates":[[[500223.05889143696,5600634.475580706],[500242.4821127141,5600571.882265375]]]}},
{"type":"Feature","id":61,"properties":{},"geometry":{"type":"MultiLineString","coordinates":[[[500242.4821127141,5600571.882265375],[500232.24661104433,5600542.757974342]]]}},
{"type":"Feature","id":62,"properties":{},"geometry":{"type":"MultiLineString","coordinates":[[[500242.4821127141,5600571.882265375],[500274.70267711894,5600563.445805814]]]}},
{"type":"Feature","id":63,"properties":{},"geometry":{"type":"MultiLineString","coordinates":[[[500274.70267711894,5600563.445805814],[500279.52226413396,5600589.953534397]]]}},
{"type":"Feature","id":64,"properties":{},"geometry":{"type":"MultiLineString","coordinates":[[[500279.52226413396,5600589.953534397],[500290.7027623923,5600649.340530126]]]}},
{"type":"Feature","id":65,"properties":{},"geometry":{"type":"MultiLineString","coordinates":[[[500274.70267711894,5600563.445805814],[500322.63414169435,5600548.043320226],[500320.9558677492,5600490.109363732]]]}},
{"type":"Feature","id":66,"properties":{},"geometry":{"type":"MultiLineString","coordinates":[[[500345.5851093149,5600489.677271775],[500353.34595592663,5600489.563938029]]]}},
{"type":"Feature","id":67,"properties":{},"geometry":{"type":"MultiLineString","coordinates":[[[500353.34595592663,5600489.563938029],[500352.15361627674,5600551.565599824],[500354.7370188516,5600555.142618774],[500324.92852760304,5600581.771537623],[500279.52226413396,5600589.953534397]]]}},
{"type":"Feature","id":68,"properties":{},"geometry":{"type":"MultiLineString","coordinates":[[[500260.3047759383,5600648.338398704],[500255.2373849885,5600667.276053588]]]}},
{"type":"Feature","id":69,"properties":{},"geometry":{"type":"MultiLineString","coordinates":[[[500255.2373849885,5600667.276053588],[500251.64294326014,5600682.634122792],[500250.98940840043,5600699.952796574]]]}},
{"type":"Feature","id":70,"properties":{},"geometry":{"type":"MultiLineString","coordinates":[[[500250.98940840043,5600699.952796574],[500250.66264097055,5600713.023493768],[500254.2570826989,5600740.145190446]]]}},
{"type":"Feature","id":71,"properties":{},"geometry":{"type":"MultiLineString","coordinates":[[[500254.2570826989,5600740.145190446],[500260.1388964363,5600762.038608246],[500274.5166633499,5600789.160304924],[500299.35098801873,5600830.333001085]]]}},
{"type":"Feature","id":72,"properties":{},"geometry":{"type":"MultiLineString","coordinates":[[[500254.2570826989,5600740.145190446],[500216.6800723428,5600750.798652236],[500184.6556201402,5600770.534561422]]]}},
{"type":"Feature","id":73,"properties":{},"geometry":{"type":"MultiLineString","coordinates":[[[500184.6556201402,5600770.534561422],[500188.2299176307,5600778.609422958],[500205.9537840998,5600860.21305816],[500248.4172141818,5600859.474563723],[500299.35098801873,5600830.333001085]]]}},
{"type":"Feature","id":74,"properties":{},"geometry":{"type":"MultiLineString","coordinates":[[[500184.6556201402,5600770.534561422],[500085.1596307968,5600606.392499805]]]}},
{"type":"Feature","id":75,"properties":{},"geometry":{"type":"MultiLineString","coordinates":[[[500124.23938935495,5600580.125982703],[500080.0827082314,5600482.699535153],[500086.70743396593,5600446.083284885]]]}},
{"type":"Feature","id":76,"properties":{},"geometry":{"type":"MultiLineString","coordinates":[[[500086.70743396593,5600446.083284885],[500112.8138451123,5600340.125723752]]]}},
{"type":"Feature","id":77,"properties":{},"geometry":{"type":"MultiLineString","coordinates":[[[500112.8138451123,5600340.125723752],[500174.9651358446,5600306.722185387],[500204.519883677,5600253.577543147],[500203.94414384145,5600211.548535151],[500225.2465177566,5600203.488177454]]]}},
{"type":"Feature","id":79,"properties":{},"geometry":{"type":"MultiLineString","coordinates":[[[500261.0264831939,5600183.230837376],[500225.2465177566,5600203.488177454]]]}},
{"type":"Feature","id":80,"properties":{},"geometry":{"type":"MultiLineString","coordinates":[[[500299.35098801873,5600830.333001085],[500368.8461877455,5600788.69131702]]]}},
{"type":"Feature","id":81,"properties":{},"geometry":{"type":"MultiLineString","coordinates":[[[500368.8461877455,5600788.69131702],[500396.0709880015,5600767.481298216]]]}},
{"type":"Feature","id":82,"properties":{},"geometry":{"type":"MultiLineString","coordinates":[[[500396.0709880015,5600767.481298216],[500370.7455924145,5600740.25649796],[500342.8876572689,5600720.9458838245],[500311.54748023005,5600708.2831860315],[500277.0416287428,5600702.268404579],[500250.98940840043,5600699.952796574]]]}},
{"type":"Feature","id":83,"properties":{},"geometry":{"type":"MultiLineString","coordinates":[[[500255.2373849885,5600667.276053588],[500306.4824011127,5600681.691520665],[500332.12436414446,5600689.922274231],[500344.4704944931,5600696.253623127]]]}},
{"type":"Feature","id":84,"properties":{},"geometry":{"type":"MultiLineString","coordinates":[[[500344.4704944931,5600696.253623127],[500372.3284296387,5600716.1973721525],[500386.5739646564,5600725.694395497],[500413.16563002265,5600753.868898087]]]}},
{"type":"Feature","id":85,"properties":{},"geometry":{"type":"MultiLineString","coordinates":[[[500413.16563002265,5600753.868898087],[500396.0709880015,5600767.481298216]]]}},
{"type":"Feature","id":86,"properties":{},"geometry":{"type":"MultiLineString","coordinates":[[[500344.4704944931,5600696.253623127],[500376.8833044827,5600636.631290948]]]}},
{"type":"Feature","id":87,"properties":{},"geometry":{"type":"MultiLineString","coordinates":[[[500376.8833044827,5600636.631290948],[500404.67575589824,5600581.491536537]]]}},
{"type":"Feature","id":88,"properties":{},"geometry":{"type":"MultiLineString","coordinates":[[[500376.8833044827,5600636.631290948],[500408.8922270008,5600653.8150283005],[500458.75875892374,5600719.854489495]]]}},
{"type":"Feature","id":89,"properties":{},"geometry":{"type":"MultiLineString","coordinates":[[[500413.16563002265,5600753.868898087],[500458.75875892374,5600719.854489495]]]}},
{"type":"Feature","id":90,"properties":{},"geometry":{"type":"MultiLineString","coordinates":[[[500458.75875892374,5600719.854489495],[500466.41088597965,5600716.773698092]]]}},
{"type":"Feature","id":91,"properties":{},"geometry":{"type":"MultiLineString","coordinates":[[[500535.3297131025,5600879.539438744],[500492.08837568207,5600878.036049434],[500368.8461877455,5600788.69131702]]]}},
{"type":"Feature","id":92,"properties":{},"geometry":{"type":"MultiLineString","coordinates":[[[500541.7191575635,5600890.694890862],[500601.45599458704,5600845.479715877]]]}},
{"type":"Feature","id":93,"properties":{},"geometry":{"type":"MultiLineString","coordinates":[[[500601.45599458704,5600845.479715877],[500522.9070044677,5600744.488157153]]]}},
{"type":"Feature","id":94,"properties":{},"geometry":{"type":"MultiLineString","coordinates":[[[500522.9070044677,5600744.488157153],[500510.3655690705,5600752.739101493],[500482.9724338608,5600765.28053689]]]}},
{"type":"Feature","id":95,"properties":{},"geometry":{"type":"MultiLineString","coordinates":[[[500601.45599458704,5600845.479715877],[500660.1941721208,5600799.236026649]]]}},
{"type":"Feature","id":96,"properties":{},"geometry":{"type":"MultiLineString","coordinates":[[[500660.1941721208,5600799.236026649],[500595.9916104852,5600739.166677136]]]}},
{"type":"Feature","id":97,"properties":{},"geometry":{"type":"MultiLineString","coordinates":[[[500595.9916104852,5600739.166677136],[500556.3127741095,5600707.2031700555]]]}},
{"type":"Feature","id":98,"properties":{},"geometry":{"type":"MultiLineString","coordinates":[[[500556.3127741095,5600707.2031700555],[500540.05547309446,5600728.695873093],[500522.9070044677,5600744.488157153]]]}},
{"type":"Feature","id":99,"properties":{},"geometry":{"type":"MultiLineString","coordinates":[[[500466.41088597965,5600716.773698092],[500510.5470132353,5600700.364613726]]]}},
{"type":"Feature","id":100,"properties":{},"geometry":{"type":"MultiLineString","coordinates":[[[500510.5470132353,5600700.364613726],[500546.95573582116,5600688.003627663]]]}},
{"type":"Feature","id":101,"properties":{},"geometry":{"type":"MultiLineString","coordinates":[[[500546.95573582116,5600688.003627663],[500556.3127741095,5600707.2031700555]]]}},
{"type":"Feature","id":102,"properties":{},"geometry":{"type":"MultiLineString","coordinates":[[[500546.95573582116,5600688.003627663],[500536.8422017695,5600650.471179071]]]}},
{"type":"Feature","id":103,"properties":{},"geometry":{"type":"MultiLineString","coordinates":[[[500536.8422017695,5600650.471179071],[500501.55720518937,5600652.943376284]]]}},
{"type":"Feature","id":104,"properties":{},"geometry":{"type":"MultiLineString","coordinates":[[[500501.55720518937,5600652.943376284],[500510.5470132353,5600700.364613726]]]}},
{"type":"Feature","id":105,"properties":{},"geometry":{"type":"MultiLineString","coordinates":[[[500450.9895349312,5600652.943376284],[500501.55720518937,5600652.943376284]]]}},
{"type":"Feature","id":106,"properties":{},"geometry":{"type":"MultiLineString","coordinates":[[[500536.8422017695,5600650.471179071],[500534.4897806194,5600596.791110354],[500507.46539959457,5600557.709784071]]]}},
{"type":"Feature","id":107,"properties":{},"geometry":{"type":"MultiLineString","coordinates":[[[500392.8866509108,5600575.753476587],[500420.22060822713,5600489.48820439]]]}},
{"type":"Feature","id":108,"properties":{},"geometry":{"type":"MultiLineString","coordinates":[[[500420.22060822713,5600489.48820439],[500475.8038375735,5600531.6493831575],[500495.8674180578,5600528.305453077]]]}},
{"type":"Feature","id":109,"properties":{},"geometry":{"type":"MultiLineString","coordinates":[[[500495.8674180578,5600528.305453077],[500507.46539959457,5600557.709784071]]]}},
{"type":"Feature","id":110,"properties":{},"geometry":{"type":"MultiLineString","coordinates":[[[500495.8674180578,5600528.305453077],[500497.4722955648,5600502.91594287],[500504.23273539136,5600485.169788325],[500512.6832851746,5600464.606783853]]]}},
{"type":"Feature","id":111,"properties":{},"geometry":{"type":"MultiLineString","coordinates":[[[500512.6832851746,5600464.606783853],[500494.65544563706,5600459.536453983]]]}},
{"type":"Feature","id":112,"properties":{},"geometry":{"type":"MultiLineString","coordinates":[[[500494.65544563706,5600459.536453983],[500454.1958026941,5600443.479456427]]]}},
{"type":"Feature","id":113,"properties":{},"geometry":{"type":"MultiLineString","coordinates":[[[500454.1958026941,5600443.479456427],[500417.7554426096,5600431.086269712]]]}},
{"type":"Feature","id":114,"properties":{},"geometry":{"type":"MultiLineString","coordinates":[[[500414.39624708204,5600400.594663946],[500460.212014589,5600394.578452051]]]}},
{"type":"Feature","id":115,"properties":{},"geometry":{"type":"MultiLineString","coordinates":[[[500460.212014589,5600394.578452051],[500454.1958026941,5600443.479456427]]]}},
{"type":"Feature","id":116,"properties":{},"geometry":{"type":"MultiLineString","coordinates":[[[500460.212014589,5600394.578452051],[500479.8032687081,5600392.110262555],[500517.7516821987,5600410.15889824]]]}},
{"type":"Feature","id":117,"properties":{},"geometry":{"type":"MultiLineString","coordinates":[[[500517.7516821987,5600410.15889824],[500494.65544563706,5600459.536453983]]]}},
{"type":"Feature","id":118,"properties":{},"geometry":{"type":"MultiLineString","coordinates":[[[500376.1339896717,5600226.828567049],[500409.55848975654,5600172.011650695]]]}},
{"type":"Feature","id":119,"properties":{},"geometry":{"type":"MultiLineString","coordinates":[[[500409.55848975654,5600172.011650695],[500551.08396796446,5600241.483296919]]]}},
{"type":"Feature","id":120,"properties":{},"geometry":{"type":"MultiLineString","coordinates":[[[500409.55848975654,5600172.011650695],[500481.02609997196,5600103.678584788],[500603.9002368336,5600118.410943034]]]}},
{"type":"Feature","id":121,"properties":{},"geometry":{"type":"MultiLineString","coordinates":[[[500566.0797925178,5600205.73637041],[500702.9518369567,5600235.956354572]]]}},
{"type":"Feature","id":122,"properties":{},"geometry":{"type":"MultiLineString","coordinates":[[[500702.9518369567,5600235.956354572],[500622.394048249,5600368.861033219]]]}},
{"type":"Feature","id":123,"properties":{},"geometry":{"type":"MultiLineString","coordinates":[[[500622.394048249,5600368.861033219],[500555.9417089259,5600332.500319249]]]}},
{"type":"Feature","id":124,"properties":{},"geometry":{"type":"MultiLineString","coordinates":[[[500555.9417089259,5600332.500319249],[500519.65498913784,5600307.449615114]]]}},
{"type":"Feature","id":125,"properties":{},"geometry":{"type":"MultiLineString","coordinates":[[[500555.9417089259,5600332.500319249],[500528.5949939235,5600388.010734165]]]}},
{"type":"Feature","id":126,"properties":{},"geometry":{"type":"MultiLineString","coordinates":[[[500528.5949939235,5600388.010734165],[500499.9895479173,5600379.244549098],[500482.0092892247,5600348.894422359]]]}},
{"type":"Feature","id":127,"properties":{},"geometry":{"type":"MultiLineString","coordinates":[[[500528.5949939235,5600388.010734165],[500599.87791985826,5600420.307205463]]]}},
{"type":"Feature","id":128,"properties":{},"geometry":{"type":"MultiLineString","coordinates":[[[500599.87791985826,5600420.307205463],[500622.394048249,5600368.861033219]]]}},
{"type":"Feature","id":129,"properties":{},"geometry":{"type":"MultiLineString","coordinates":[[[500528.5949939235,5600388.010734165],[500517.7516821987,5600410.15889824]]]}},
{"type":"Feature","id":130,"properties":{},"geometry":{"type":"MultiLineString","coordinates":[[[500599.87791985826,5600420.307205463],[500571.2724738521,5600441.991979048],[500512.6832851746,5600464.606783853]]]}},
{"type":"Feature","id":131,"properties":{},"geometry":{"type":"MultiLineString","coordinates":[[[500420.22060822713,5600489.48820439],[500381.06209737546,5600488.475126235]]]}},
{"type":"Feature","id":132,"properties":{},"geometry":{"type":"MultiLineString","coordinates":[[[500381.06209737546,5600488.475126235],[500353.34595592663,5600489.563938029]]]}},
{"type":"Feature","id":133,"properties":{},"geometry":{"type":"MultiLineString","coordinates":[[[500416.1587194865,5600416.592724579],[500382.7843562551,5600417.928372914]]]}},
{"type":"Feature","id":134,"properties":{},"geometry":{"type":"MultiLineString","coordinates":[[[500382.7843562551,5600417.928372914],[500381.06209737546,5600488.475126235]]]}},
{"type":"Feature","id":135,"properties":{},"geometry":{"type":"MultiLineString","coordinates":[[[500382.7843562551,5600417.928372914],[500348.6256729613,5600419.156676091]]]}},
{"type":"Feature","id":136,"properties":{},"geometry":{"type":"MultiLineString","coordinates":[[[500595.9916104852,5600739.166677136],[500622.7460605186,5600709.23063193]]]}},
{"type":"Feature","id":137,"properties":{},"geometry":{"type":"MultiLineString","coordinates":[[[500622.7460605186,5600709.23063193],[500645.3521112177,5600729.379503205]]]}},
{"type":"Feature","id":138,"properties":{},"geometry":{"type":"MultiLineString","coordinates":[[[500645.3521112177,5600729.379503205],[500691.2194604623,5600774.755416565]]]}},
{"type":"Feature","id":139,"properties":{},"geometry":{"type":"MultiLineString","coordinates":[[[500691.2194604623,5600774.755416565],[500748.553647018,5600724.956580242]]]}},
{"type":"Feature","id":140,"properties":{},"geometry":{"type":"MultiLineString","coordinates":[[[500748.553647018,5600724.956580242],[500810.7134497215,5600670.347035906],[500737.66677885066,5600587.031823443]]]}},
{"type":"Feature","id":141,"properties":{},"geometry":{"type":"MultiLineString","coordinates":[[[500737.66677885066,5600587.031823443],[500721.5638386267,5600565.561236478]]]}},
{"type":"Feature","id":142,"properties":{},"geometry":{"type":"MultiLineString","coordinates":[[[500721.5638386267,5600565.561236478],[500799.20533395704,5600505.077760626],[500775.8677394296,5600469.371240999],[500784.73602535005,5600412.427510351]]]}},
{"type":"Feature","id":143,"properties":{},"geometry":{"type":"MultiLineString","coordinates":[[[500784.73602535005,5600412.427510351],[500734.7282277967,5600400.091257884]]]}},
{"type":"Feature","id":144,"properties":{},"geometry":{"type":"MultiLineString","coordinates":[[[500734.7282277967,5600400.091257884],[500693.50003330456,5600380.669711718],[500672.0341138582,5600369.425658675]]]}},
{"type":"Feature","id":145,"properties":{},"geometry":{"type":"MultiLineString","coordinates":[[[500556.3127741095,5600707.2031700555],[500586.8028675957,5600680.754232443]]]}},
{"type":"Feature","id":146,"properties":{},"geometry":{"type":"MultiLineString","coordinates":[[[500586.8028675957,5600680.754232443],[500622.7460605186,5600709.23063193]]]}},
{"type":"Feature","id":147,"properties":{},"geometry":{"type":"MultiLineString","coordinates":[[[500586.8028675957,5600680.754232443],[500583.5817917369,5600669.847437435]]]}},
{"type":"Feature","id":148,"properties":{},"geometry":{"type":"MultiLineString","coordinates":[[[500583.5817917369,5600669.847437435],[500608.72442255326,5600661.7026415365],[500631.9193847853,5600652.318420175],[500654.58316467615,5600642.580077253],[500666.44623696274,5600635.4976460375]]]}},
{"type":"Feature","id":149,"properties":{},"geometry":{"type":"MultiLineString","coordinates":[[[500666.44623696274,5600635.4976460375],[500681.8505248573,5600627.352850139]]]}},
{"type":"Feature","id":150,"properties":{},"geometry":{"type":"MultiLineString","coordinates":[[[500681.8505248573,5600627.352850139],[500737.66677885066,5600587.031823443]]]}},
{"type":"Feature","id":151,"properties":{},"geometry":{"type":"MultiLineString","coordinates":[[[500681.8505248573,5600627.352850139],[500711.4196751836,5600672.857470701]]]}},
{"type":"Feature","id":152,"properties":{},"geometry":{"type":"MultiLineString","coordinates":[[[500711.4196751836,5600672.857470701],[500748.553647018,5600724.956580242]]]}},
{"type":"Feature","id":153,"properties":{},"geometry":{"type":"MultiLineString","coordinates":[[[500645.3521112177,5600729.379503205],[500711.4196751836,5600672.857470701]]]}},
{"type":"Feature","id":154,"properties":{},"geometry":{"type":"MultiLineString","coordinates":[[[500672.0341138582,5600369.425658675],[500654.30308006925,5600396.027944306],[500637.6939714018,5600435.755136659]]]}},
{"type":"Feature","id":155,"properties":{},"geometry":{"type":"MultiLineString","coordinates":[[[500637.6939714018,5600435.755136659],[500629.38941706804,5600449.895323768],[500608.7402549409,5600466.055537607]]]}},
{"type":"Feature","id":156,"properties":{},"geometry":{"type":"MultiLineString","coordinates":[[[500608.7402549409,5600466.055537607],[500588.4799163847,5600478.812111178],[500568.540164028,5600484.046296172]]]}},
{"type":"Feature","id":157,"properties":{},"geometry":{"type":"MultiLineString","coordinates":[[[500568.540164028,5600484.046296172],[500549.0137461213,5600489.869326978],[500535.6665743876,5600521.807202199],[500568.0811343124,5600573.765835019]]]}},
{"type":"Feature","id":158,"properties":{},"geometry":{"type":"MultiLineString","coordinates":[[[500568.0811343124,5600573.765835019],[500573.81933801057,5600586.780632237],[500576.8998540802,5600638.201554324],[500578.0846679532,5600655.025911319],[500583.5817917369,5600669.847437435]]]}},
{"type":"Feature","id":159,"properties":{},"geometry":{"type":"MultiLineString","coordinates":[[[500568.0811343124,5600573.765835019],[500598.9373921173,5600556.686359864]]]}},
{"type":"Feature","id":160,"properties":{},"geometry":{"type":"MultiLineString","coordinates":[[[500598.9373921173,5600556.686359864],[500616.23567466246,5600549.103551077]]]}},
{"type":"Feature","id":161,"properties":{},"geometry":{"type":"MultiLineString","coordinates":[[[500616.23567466246,5600549.103551077],[500646.09298426105,5600529.198678011]]]}},
{"type":"Feature","id":162,"properties":{},"geometry":{"type":"MultiLineString","coordinates":[[[500646.09298426105,5600529.198678011],[500674.2915544374,5600513.796097662],[500682.34828877356,5600521.852831999]]]}},
{"type":"Feature","id":163,"properties":{},"geometry":{"type":"MultiLineString","coordinates":[[[500682.34828877356,5600521.852831999],[500721.5638386267,5600565.561236478]]]}},
{"type":"Feature","id":164,"properties":{},"geometry":{"type":"MultiLineString","coordinates":[[[500666.44623696274,5600635.4976460375],[500616.23567466246,5600549.103551077]]]}},
{"type":"Feature","id":165,"properties":{},"geometry":{"type":"MultiLineString","coordinates":[[[500598.9373921173,5600556.686359864],[500568.540164028,5600484.046296172]]]}},
{"type":"Feature","id":166,"properties":{},"geometry":{"type":"MultiLineString","coordinates":[[[500646.09298426105,5600529.198678011],[500608.7402549409,5600466.055537607]]]}},
{"type":"Feature","id":167,"properties":{},"geometry":{"type":"MultiLineString","coordinates":[[[500637.6939714018,5600435.755136659],[500733.69812202745,5600476.246976402],[500682.34828877356,5600521.852831999]]]}},
{"type":"Feature","id":168,"properties":{},"geometry":{"type":"MultiLineString","coordinates":[[[500599.87791985826,5600420.307205463],[500637.6939714018,5600435.755136659]]]}},
{"type":"Feature","id":169,"properties":{},"geometry":{"type":"MultiLineString","coordinates":[[[500702.9518369567,5600235.956354572],[500731.3427174354,5600257.560887899]]]}},
{"type":"Feature","id":170,"properties":{},"geometry":{"type":"MultiLineString","coordinates":[[[500731.3427174354,5600257.560887899],[500699.110736427,5600312.694539623],[500672.0341138582,5600369.425658675]]]}},
{"type":"Feature","id":171,"properties":{},"geometry":{"type":"MultiLineString","coordinates":[[[500691.2194604623,5600774.755416565],[500660.1941721208,5600799.236026649]]]}},
{"type":"Feature","id":172,"properties":{},"geometry":{"type":"MultiLineString","coordinates":[[[500731.3427174354,5600257.560887899],[500757.4855762973,5600268.605639173],[500794.15804582514,5600276.627741883]]]}},
{"type":"Feature","id":173,"properties":{},"geometry":{"type":"MultiLineString","coordinates":[[[500794.15804582514,5600276.627741883],[500734.7282277967,5600400.091257884]]]}},
{"type":"Feature","id":174,"properties":{},"geometry":{"type":"MultiLineString","coordinates":[[[500794.15804582514,5600276.627741883],[500818.79736128915,5600280.065785901],[500845.15569876233,5600285.222851927],[500784.73602535005,5600412.427510351]]]}},
{"type":"Feature","id":175,"properties":{},"geometry":{"type":"MultiLineString","coordinates":[[[500660.1941721208,5600799.236026649],[500707.43965028663,5600844.698507174],[500743.58556629496,5600907.953860189],[500763.16460413276,5600963.678814035],[500767.68284363375,5601009.61424896],[500767.68284363375,5601009.61424896]]]}},
{"type":"Feature","id":176,"properties":{},"geometry":{"type":"MultiLineString","coordinates":[[[500691.2194604623,5600774.755416565],[500740.07138001634,5600825.119469335],[500778.9784423864,5600895.403194907],[500800.31457336346,5600958.15652131],[500805.33483947575,5601010.869315489],[500805.33483947575,5601010.869315489]]]}},
{"type":"Feature","id":177,"properties":{},"geometry":{"type":"MultiLineString","coordinates":[[[500702.9518369567,5600235.956354572],[500845.49696837383,5600003.050893452]]]}},
{"type":"Feature","id":178,"properties":{},"geometry":{"type":"MultiLineString","coordinates":[[[500731.3427174354,5600257.560887899],[500846.29233084,5600062.3868382]]]}},
{"type":"Feature","id":179,"properties":{},"geometry":{"type":"MultiLineString","coordinates":[[[500181.2853491746,5600382.157682046],[500250.6700206005,5600310.253608584],[500301.44560829207,5600230.676013173]]]}},
{"type":"Feature","id":180,"properties":{},"geometry":{"type":"MultiLineString","coordinates":[[[500174.1092607661,5600622.489197581],[500216.6800723428,5600750.798652236]]]}}
]
}
